,restaurant,lat,lon,address,price($),tag,star,description,tokens,dominant_topic,topic_id,consumer_type,consumer_scene
0,Cote,40.741423,-73.991463,"16 W. 22nd St., New York, 10010, USA",4,"Korean, Steakhouse",1,"Korean-born Simon Kim opened Cote as a joyful celebration of his home country’s love for beef allied with his admiration for the great American steakhouse. Just head downstairs and admire the meats hanging in the aging room. The space also breaks the norm in its mien—dark, moody and atmospheric. There’s a comprehensive wine list too, which, if you look close enough, offers nuggets of value. (Downstairs is their ersatz speakeasy, Undercote.)
First-timers should go for the “Butcher’s Feast” featuring different cuts of beef, an egg soufflé, and enough banchan to cover your table. Meats are first presented raw for you to admire; your server then oils the grill and expertly cooks them. A supporting cast of kimchi and ssamjang merely elevate their flavor.","['koreanborn', 'simon', 'kim', 'open', 'cote', 'joy', 'celebr', 'hi', 'home', 'countri', 'love', 'beef', 'alli', 'hi', 'admir', 'american', 'steakhous', 'head', 'downstair', 'admir', 'meat', 'hang', 'age', 'room', 'space', 'break', 'norm', 'miendark', 'moodi', 'atmospher', 'there', 'comprehens', 'wine', 'list', 'too', 'which', 'look', 'close', 'enough', 'offer', 'nugget', 'valu', 'downstair', 'ersatz', 'speakeasi', 'undercot', 'firsttim', 'should', 'butcher', 'feast', 'featur', 'differ', 'cut', 'beef', 'egg', 'souffl', 'enough', 'banchan', 'cover', 'tabl', 'meat', 'first', 'present', 'raw', 'admir', 'server', 'then', 'oil', 'grill', 'expertli', 'cook', 'them', 'support', 'cast', 'kimchi', 'ssamjang', 'mere', 'elev', 'flavor']",3,3,3,"Romantic & Intimate Dining (Calm, Private, Ambience-Focused)"
1,Jua,40.740014,-73.987448,"36 E. 22nd St., New York, 10010, USA",4,"Korean, Contemporary",1,"Several years in, and Chef Hoyoung Kim and his team continue to deliver their promise of a nicely poised, modern Korean prix-fix that is both familiar and substantial. Jook with smoked eel and sesame is as comforting as it is refined, while crispy seaweed cradling tuna tartare and rice capped with caviar is as luxurious of a start as one could hope for. Have you ever seen a banchan as minimalist and as impactful as this one? Probably not. Dinner typically ends with a glazed Korean-style donut and a silky-smooth orb of ice cream. All the while, this slim and sleek restaurant is right at home being in such close proximity to the Flatiron Building thanks to its soaring ceilings, sultry lighting and a packed dining room humming with energy.","['sever', 'year', 'chef', 'hoyoung', 'kim', 'hi', 'team', 'continu', 'deliv', 'promis', 'pois', 'korean', 'prixfix', 'both', 'familiar', 'substanti', 'jook', 'smoke', 'eel', 'sesam', 'comfort', 'refin', 'while', 'crispi', 'seawe', 'cradl', 'tuna', 'tartar', 'rice', 'cap', 'caviar', 'start', 'one', 'could', 'hope', 'ever', 'seen', 'banchan', 'minimalist', 'impact', 'one', 'probabl', 'not', 'dinner', 'typic', 'end', 'glaze', 'koreanstyl', 'donut', 'silkysmooth', 'orb', 'ice', 'cream', 'while', 'slim', 'sleek', 'restaur', 'right', 'home', 'be', 'close', 'proxim', 'flatiron', 'build', 'thank', 'soar', 'ceil', 'sultri', 'light', 'pack', 'dine', 'room', 'hum', 'energi']",1,1,3,"Romantic & Intimate Dining (Calm, Private, Ambience-Focused)"
2,Shota Omakase,40.713524,-73.965932,"50 S. 3rd St., Brooklyn, 11249, USA",4,"Japanese, Sushi",1,"Far from the subway stop on a quiet street in Williamsburg, find this welcoming omakase counter hidden away near Domino Park. Chef Cheng Lin sets the tone as a friendly, relaxed guide for the night’s proceedings. And whereas some chefs practically take vows of silence with regards to sourcing and technique, he is quick to share where in Japan the fish is from, why he uses Inochi-no Ichi rice, and what it took to find his special aged soys and vinegars. His intentionality delivers in the form of excellent, seasonal product and a fine-tuned parade of nigiri, for which the rice is refreshed repeatedly. Prepared dishes like binchotan-seared sawara with citrus sauce, shiso, and nori or even a restorative cup of dashi with mushrooms also show distinction.","['far', 'subway', 'stop', 'quiet', 'street', 'williamsburg', 'find', 'welcom', 'omakas', 'counter', 'hidden', 'away', 'near', 'domino', 'park', 'chef', 'cheng', 'lin', 'set', 'tone', 'friendli', 'relax', 'guid', 'night', 'proceed', 'wherea', 'some', 'chef', 'practic', 'take', 'vow', 'silenc', 'regard', 'sourc', 'techniqu', 'quick', 'share', 'where', 'japan', 'fish', 'whi', 'use', 'inochino', 'ichi', 'rice', 'what', 'took', 'find', 'hi', 'age', 'soy', 'vinegar', 'hi', 'intention', 'deliv', 'form', 'product', 'finetun', 'parad', 'nigiri', 'which', 'rice', 'refresh', 'repeatedli', 'prepar', 'dish', 'like', 'binchotansear', 'sawara', 'citru', 'sauc', 'shiso', 'nori', 'even', 'restor', 'cup', 'dashi', 'mushroom', 'show', 'distinct']",4,4,4,"Gourmet Exploration (Curated, Inventive, Detail-Oriented Culinary Experiences)"
3,Eleven Madison Park,40.741554,-73.987241,"
11 Madison Ave., New York, 10010, USA",4,"Vegan, Innovative",3,"Chef Daniel Humm presides over this temple of modern elegance with a zealous dedication to masterful precision. Nothing is out of place and everything is custom made, from the staff’s suits to the handblown water vases.
The plant-based menu is a bold vision of luxury dining and elevates the concept to unparalleled heights. The freshly baked, delicately crisped vegan roll presented with faux butter is a magical creation. A quenelle of tonburi, mimicking caviar, plated with horseradish cream and accompanied by a radish tostada with a swipe of pumpkin seed butter is simply stunning. Toothsome braised seitan, wrapped in spinach and dressed with morels, is amplified with luscious sauce work.
Desserts, perhaps a frozen cherry blossom and rose confection dressed with strawberries, are equally accomplished.","['chef', 'daniel', 'humm', 'presid', 'over', 'templ', 'eleg', 'zealou', 'dedic', 'master', 'precis', 'noth', 'out', 'place', 'everyth', 'custom', 'made', 'staff', 'suit', 'handblown', 'water', 'vase', 'plantbas', 'menu', 'bold', 'vision', 'dine', 'elev', 'concept', 'unparallel', 'height', 'freshli', 'bake', 'delic', 'crisp', 'vegan', 'roll', 'present', 'faux', 'butter', 'magic', 'creation', 'quenel', 'tonburi', 'mimick', 'caviar', 'plate', 'horseradish', 'cream', 'accompani', 'radish', 'tostada', 'swipe', 'pumpkin', 'seed', 'butter', 'simpli', 'stun', 'toothsom', 'brais', 'seitan', 'wrap', 'spinach', 'dress', 'morel', 'amplifi', 'lusciou', 'sauc', 'work', 'dessert', 'perhap', 'frozen', 'cherri', 'blossom', 'rose', 'confect', 'dress', 'strawberri', 'equal', 'accomplish']",5,5,2,"Social Dining with Friends (Lively, Relaxed, Fun)"
4,Francie,40.710346,-73.963759,"134 Broadway, Brooklyn, 11249, USA",4,"Contemporary, Italian",1,"Francie is headed by John Winterman and native New Yorker, Chef Chris Cipollone. Set within a striking, limestone-clad building in South Williamsburg, this haven features sleek ash wood and mosaic tile flooring, exposed red brick walls, and widely spaced tables.
The open kitchen is a true-to-life stage for this team, who can be seen prepping, cooking, and putting the finishing touches on a series of Mediterranean-style plates. Pasta is a must, as in the conchiglie with a luscious clam sauce. Shelled clams, bits of bacon, and sesame breadcrumbs complete the delightful preparation. Lamb is a springtime treat when dressed with green garlic persillade and young onion soubise. Caramelized apple atop buttery cake with crème fraîche and green apple brunoise is a fine finale to the array of impressive cuisine offered here.","['franci', 'head', 'john', 'winterman', 'nativ', 'new', 'yorker', 'chef', 'chri', 'cipollon', 'set', 'within', 'strike', 'limestoneclad', 'build', 'south', 'williamsburg', 'haven', 'featur', 'sleek', 'ash', 'wood', 'mosaic', 'tile', 'floor', 'expos', 'red', 'brick', 'wall', 'wide', 'space', 'tabl', 'open', 'kitchen', 'truetolif', 'stage', 'team', 'who', 'can', 'seen', 'prep', 'cook', 'put', 'finish', 'touch', 'seri', 'mediterraneanstyl', 'plate', 'pasta', 'must', 'conchigli', 'lusciou', 'clam', 'sauc', 'shell', 'clam', 'bit', 'bacon', 'sesam', 'breadcrumb', 'complet', 'delight', 'prepar', 'lamb', 'springtim', 'treat', 'when', 'dress', 'green', 'garlic', 'persillad', 'young', 'onion', 'soubis', 'caramel', 'appl', 'atop', 'butteri', 'cake', 'crme', 'frach', 'green', 'appl', 'brunois', 'final', 'array', 'cuisin', 'offer', 'here']",2,2,4,"Gourmet Exploration (Curated, Inventive, Detail-Oriented Culinary Experiences)"
5,Atomix,40.744306,-73.982675,"104 E. 30th St., New York, 10016, USA",4," Korean, Contemporary",2,"Chef Junghyun Park and his wife Ellia are global ambassadors for contemporary Korean cooking, but all roads lead back to their Murray Hill brownstone. Sporting dark finishes and soothing earth tones, the room unfolds into a chic bar and subterranean dining counter that is as warm and as inviting as the servers. This is one of the city’s most coveted reservations – and for good reason. Raw marinated blue crab – ganjang gejang – arrives reimagined as a tart with golden queen rice. Fluke from Jeju Island comes paired with abalone and watermelon. Filefish and veal tartare sings with a bold liver sauce. The menu is ever-evolving, but the team's commitment to Korean traditions prepared with finesse and flair is steadfast.","['chef', 'junghyun', 'park', 'hi', 'wife', 'ellia', 'global', 'ambassador', 'contemporari', 'korean', 'cook', 'but', 'road', 'lead', 'back', 'murray', 'hill', 'brownston', 'sport', 'dark', 'finish', 'sooth', 'earth', 'tone', 'room', 'unfold', 'chic', 'bar', 'subterranean', 'dine', 'counter', 'warm', 'invit', 'server', 'one', 'citi', 'most', 'covet', 'reserv', 'reason', 'raw', 'marin', 'blue', 'crab', 'ganjang', 'gejang', 'arriv', 'reimagin', 'tart', 'golden', 'queen', 'rice', 'fluke', 'jeju', 'island', 'come', 'pair', 'abalon', 'watermelon', 'filefish', 'veal', 'tartar', 'sing', 'bold', 'liver', 'sauc', 'menu', 'everevolv', 'but', 'team', 'commit', 'korean', 'tradit', 'prepar', 'finess', 'flair', 'steadfast']",5,5,2,"Social Dining with Friends (Lively, Relaxed, Fun)"
6,The Four Horsemen,40.712926,-73.9575,"295 Grand St., Brooklyn, 11211, USA",4,"American, Californian",1,"Reservations are required or be ready to queue at this eternally cool Williamsburg wine bar part-owned by LCD Soundsystem frontman, James Murphy. Four Horseman's wine list is eclectic and laser-focused on varietals, and Chef Nick Curtola's succinct and seasonally changing menu rarely misses.
Start with the veal sweetbread skewers with soy-cured egg yolk. Or the crisp chickpea crepe, woven with pieces of squash blossoms that lures you in with a layer of glistening lardon. Fried skate wing comes to you deep golden and impossibly crisp, and the Berkshire pork is tender with a hint of cider glaze. Let the sociable staff talk you into closing over a silky crème caramel topped with deeply toasted crispy bits of soba.","['reserv', 'requir', 'readi', 'queue', 'etern', 'cool', 'williamsburg', 'wine', 'bar', 'partown', 'lcd', 'soundsystem', 'frontman', 'jame', 'murphi', 'four', 'horseman', 'wine', 'list', 'eclect', 'laserfocus', 'variet', 'chef', 'nick', 'curtola', 'succinct', 'season', 'chang', 'menu', 'rare', 'miss', 'start', 'veal', 'sweetbread', 'skewer', 'soycur', 'egg', 'yolk', 'crisp', 'chickpea', 'crepe', 'woven', 'piec', 'squash', 'blossom', 'lure', 'layer', 'glisten', 'lardon', 'fri', 'skate', 'wing', 'come', 'deep', 'golden', 'imposs', 'crisp', 'berkshir', 'pork', 'tender', 'hint', 'cider', 'glaze', 'let', 'sociabl', 'staff', 'talk', 'close', 'over', 'silki', 'crme', 'caramel', 'top', 'deepli', 'toast', 'crispi', 'bit', 'soba']",0,0,1,"Business Fine Dining (Elegant, Secure, Executive Atmosphere)"
7,Joo Ok,40.747503,-73.986724,"22 W. 32nd St., 16th Fl., New York, 10001, USA",4,"Korean, Contemporary",1,"This Seoul transplant has an unusual entrance—via freight elevator up 16 floors—but the elegant space is instantly inviting. Echoing a traditional Korean home, guests are welcomed with savory crackers and drinks before being escorted to the dining room, where a minimalist design is juxtaposed with views of the Manhattan skyline. Joo Ok delivers a Korean tasting menu that is rooted in tradition but presented through a modern lens. Dishes are stunning, as in the jat jeup chae - tender lobster and Korean pear tucked inside salted cucumber slices. A puff of deeply savory soy sauce-braised chicken thighs is texturally effervescent, but their signature deul gi reum with diced geoduck, spotted shrimp, and a whole quail egg in house-pressed perilla seed oil is equally memorable.","['seoul', 'transplant', 'unusu', 'entrancevia', 'freight', 'elev', 'floorsbut', 'space', 'instantli', 'invit', 'echo', 'korean', 'home', 'guest', 'welcom', 'savori', 'cracker', 'drink', 'befor', 'be', 'escort', 'dine', 'room', 'where', 'minimalist', 'design', 'juxtapos', 'view', 'manhattan', 'skylin', 'joo', 'deliv', 'korean', 'tast', 'menu', 'root', 'tradit', 'but', 'present', 'through', 'len', 'dish', 'stun', 'jat', 'jeup', 'chae', 'tender', 'lobster', 'korean', 'pear', 'tuck', 'insid', 'salt', 'cucumb', 'slice', 'puff', 'deepli', 'savori', 'soy', 'saucebrais', 'chicken', 'thigh', 'textur', 'effervesc', 'but', 'signatur', 'deul', 'reum', 'dice', 'geoduck', 'spot', 'shrimp', 'whole', 'quail', 'egg', 'housepress', 'perilla', 'seed', 'oil', 'equal']",4,4,4,"Gourmet Exploration (Curated, Inventive, Detail-Oriented Culinary Experiences)"
8,Nōksu,40.74835,-73.987997,"49 W. 32nd St., New York, 10001, USA",4,"Contemporary, Korean",1,"Eating underground in the subway system may not sound appealing, but that hasn't stopped Chef Dae Kim. In the heart of Koreatown at Herald Square behind a code-locked door, find a black marble counter that stretches the length of the room. Every chef is armed with tweezers to manage and primp gorgeous dishes that are largely contemporary in their design. Seafood is a serious focus with the likes of crab, fluke, clams, and mackerel. The restaurant’s signature is obvious once you spot the squab dry aging in a fridge. Against the backdrop of 80s hits playing overhead, a chef holds the bird up and repeatedly ladles hot oil over it in the style of Peking duck. It’s a defining reminder that in New York City, anything can happen anywhere.","['eat', 'underground', 'subway', 'system', 'may', 'not', 'sound', 'appeal', 'but', 'hasnt', 'stop', 'chef', 'dae', 'kim', 'heart', 'koreatown', 'herald', 'squar', 'behind', 'codelock', 'door', 'find', 'black', 'marbl', 'counter', 'stretch', 'length', 'room', 'everi', 'chef', 'arm', 'tweezer', 'manag', 'primp', 'dish', 'larg', 'contemporari', 'design', 'seafood', 'seriou', 'focu', 'like', 'crab', 'fluke', 'clam', 'mackerel', 'restaur', 'signatur', 'obviou', 'onc', 'spot', 'squab', 'dri', 'age', 'fridg', 'against', 'backdrop', 'hit', 'play', 'overhead', 'chef', 'hold', 'bird', 'repeatedli', 'ladl', 'hot', 'oil', 'over', 'style', 'peke', 'duck', 'defin', 'remind', 'new', 'york', 'citi', 'anyth', 'can', 'happen', 'anywher']",3,3,3,"Romantic & Intimate Dining (Calm, Private, Ambience-Focused)"
9,Oxomoco,40.730022,-73.955504,"128 Greenpoint Ave., Brooklyn, 11222, USA",3,"Mexican, Contemporary",1,"Don’t let the casual ambience fool you: Oxomoco is a serious dining room capable of great things in its wood-fired oven. The room is lively and packed but always conducive to conversation.
Tacos are the main draw, especially when piled with the likes of tender flank steak or soft-shell crab. However, this kitchen team doesn’t stick to merely one dish or area of Mexico. Instead, they reach widely across a myriad of regions, always balancing abundance with fresh and vibrant flavors. The menu thereby tempts and tantalizes with such large and small items as the tropical hamachi agua chile and tlayuda crafted from smoky corn on a shell. Other standouts include the brined, fried and smoked “giant chicken.""","['dont', 'let', 'casual', 'ambienc', 'fool', 'oxomoco', 'seriou', 'dine', 'room', 'capabl', 'thing', 'woodfir', 'oven', 'room', 'live', 'pack', 'but', 'alway', 'conduc', 'convers', 'taco', 'main', 'draw', 'especi', 'when', 'pile', 'like', 'tender', 'flank', 'steak', 'softshel', 'crab', 'howev', 'kitchen', 'team', 'doesnt', 'stick', 'mere', 'one', 'dish', 'area', 'mexico', 'instead', 'reach', 'wide', 'across', 'myriad', 'region', 'alway', 'balanc', 'abund', 'vibrant', 'flavor', 'menu', 'therebi', 'tempt', 'tantal', 'larg', 'small', 'item', 'tropic', 'hamachi', 'agua', 'chile', 'tlayuda', 'craft', 'smoki', 'corn', 'shell', 'other', 'standout', 'includ', 'brine', 'fri', 'smoke', 'giant', 'chicken']",3,3,3,"Romantic & Intimate Dining (Calm, Private, Ambience-Focused)"
10,Tempura Matsui,40.748191,-73.974663,"222 E. 39th St., New York, 10016, USA",4,"Japanese, Tempura",1,"Tempura Matsui skillfully demonstrates why tempura is a celebrated Japanese cuisine type in its own right. The prized seats are at the counter, especially if you want to see the master at work.
The chef uses a mix of sesame and cottonseed oils and the batter is used sparingly. You’ll start with a seasonal soup including seared scallop with wheat cake, before having some beautifully arranged sashimi. Then, the main event begins in the traditional way with crispy shrimp legs. Dishes turned out of this kitchen usually vary according to the seasons, but could include the likes of wonderfully tender squid, succulent Hokkaido scallop, tender cauliflower, as well as snow crab wrapped in shiso leaf. Be sure to end with tencha, with its mellow and deeply flavorful broth.","['tempura', 'matsui', 'skill', 'demonstr', 'whi', 'tempura', 'celebr', 'japanes', 'cuisin', 'type', 'own', 'right', 'prize', 'seat', 'counter', 'especi', 'want', 'see', 'master', 'work', 'chef', 'use', 'mix', 'sesam', 'cottonse', 'oil', 'batter', 'use', 'sparingli', 'youll', 'start', 'soup', 'includ', 'sear', 'scallop', 'wheat', 'cake', 'befor', 'have', 'some', 'beauti', 'arrang', 'sashimi', 'then', 'main', 'event', 'begin', 'way', 'crispi', 'shrimp', 'leg', 'dish', 'turn', 'out', 'kitchen', 'usual', 'vari', 'accord', 'season', 'but', 'could', 'includ', 'like', 'wonder', 'tender', 'squid', 'succul', 'hokkaido', 'scallop', 'tender', 'cauliflow', 'well', 'snow', 'crab', 'wrap', 'shiso', 'leaf', 'sure', 'end', 'tencha', 'mellow', 'deepli', 'flavor', 'broth']",1,1,3,"Romantic & Intimate Dining (Calm, Private, Ambience-Focused)"
11,Restaurant Yuu,40.723363,-73.952163,"55 Nassau Ave., Brooklyn, 11222, USA",4,"French, Contemporary, Japanese",1,"At the start of service, the lights dim and servers pull back curtains to reveal the full kitchen team dressed in stark whites and standing at attention. This is just the beginning of a carefully choreographed performance by Chef Yuu Shimano, whose classic French training and Japanese heritage translates to beauty and boldness on the plate. The lengthy menu celebrates top-grade shellfish and proteins that waver between light and indulgent. Think smoked surf clam with celeriac or abalone risotto with nori powder. The signature duck and foie pastry is a treasure from another era, while a pre-dessert “mojito” is a sweet flash of modern-day brilliance. The warehouse-chic space is impressive in scale and carefully tended to by a quiet but attentive team.","['start', 'servic', 'light', 'dim', 'server', 'pull', 'back', 'curtain', 'reveal', 'full', 'kitchen', 'team', 'dress', 'stark', 'white', 'stand', 'attent', 'begin', 'care', 'choreograph', 'perform', 'chef', 'yuu', 'shimano', 'whose', 'classic', 'french', 'train', 'japanes', 'heritag', 'translat', 'beauti', 'bold', 'plate', 'lengthi', 'menu', 'celebr', 'topgrad', 'shellfish', 'protein', 'waver', 'between', 'light', 'indulg', 'think', 'smoke', 'surf', 'clam', 'celeriac', 'abalon', 'risotto', 'nori', 'powder', 'signatur', 'duck', 'foie', 'pastri', 'treasur', 'anoth', 'era', 'while', 'predessert', 'mojito', 'sweet', 'flash', 'modernday', 'brillianc', 'warehousech', 'space', 'scale', 'care', 'tend', 'quiet', 'but', 'attent', 'team']",2,2,4,"Gourmet Exploration (Curated, Inventive, Detail-Oriented Culinary Experiences)"
12,Chef's Table at Brooklyn Fare,40.756082,-73.9965,"431 W. 37th St., New York, 10018, USA",4,Contemporary,2,"This famed address hidden in the back corner of a Hell’s Kitchen grocery store has entered a new era under Chefs Max Natmessnig and Marco Prins. The room is a box of luxury and sparkles as bright as ever under the spotlights, with most guests seated at a glossy walnut counter that wraps around a brigade of cooks who have nowhere to hide. The team works quickly, sending out a volley of delicate tarts and bites that showcase skill and refinement. Highlights have included sea scallop in a lush brown butter sauce, turbot with firefly squid and herb-oil swirled buttermilk, and buri tartare with smoky creme fraiche and finger lime. All the while, an excellent service team keeps close watch from all corners of the room.","['fame', 'address', 'hidden', 'back', 'corner', 'hell', 'kitchen', 'groceri', 'store', 'enter', 'new', 'era', 'under', 'chef', 'max', 'natmessnig', 'marco', 'prin', 'room', 'box', 'sparkl', 'bright', 'ever', 'under', 'spotlight', 'most', 'guest', 'seat', 'glossi', 'walnut', 'counter', 'wrap', 'around', 'brigad', 'cook', 'who', 'nowher', 'hide', 'team', 'work', 'quickli', 'send', 'out', 'volley', 'delic', 'tart', 'bite', 'showcas', 'skill', 'refin', 'highlight', 'includ', 'sea', 'scallop', 'lush', 'brown', 'butter', 'sauc', 'turbot', 'firefli', 'squid', 'herboil', 'swirl', 'buttermilk', 'buri', 'tartar', 'smoki', 'creme', 'fraich', 'finger', 'lime', 'while', 'servic', 'team', 'keep', 'close', 'watch', 'corner', 'room']",1,1,3,"Romantic & Intimate Dining (Calm, Private, Ambience-Focused)"
13,Sushi Sho,40.752698,-73.980801,"3 E. 41st St., New York, 10017, USA",4,Sushi,2,"In the shadow of the New York Public Library, Chef Keiji Nakazawa exemplifies mastery of the highest order. An omakase like no other, the progression ebbs and flows with a dazzling variety of fish, shellfish, vegetables, and more—all aged, fermented, and pickled for weeks, months, and sometimes years. Rice is treated with reverence; seasoned to suit and complement the range of fish. The setting is its own marvel and features a spacious, eight-seat Hinoki counter flanked by towering ice boxes fronted with carved wood doors, while all around, the kitchen and service teams work in perfect tandem. In total, the pace, breadth, and persistence of excellence that unfolds here will impress even the most experienced sushi enthusiasts.","['shadow', 'new', 'york', 'public', 'librari', 'chef', 'keiji', 'nakazawa', 'exemplifi', 'masteri', 'highest', 'order', 'omakas', 'like', 'other', 'progress', 'ebb', 'flow', 'dazzl', 'varieti', 'fish', 'shellfish', 'veget', 'moreal', 'age', 'ferment', 'pickl', 'week', 'month', 'sometim', 'year', 'rice', 'treat', 'rever', 'season', 'suit', 'complement', 'rang', 'fish', 'set', 'own', 'marvel', 'featur', 'spaciou', 'eightseat', 'hinoki', 'counter', 'flank', 'tower', 'ice', 'box', 'front', 'carv', 'wood', 'door', 'while', 'around', 'kitchen', 'servic', 'team', 'work', 'tandem', 'total', 'pace', 'breadth', 'persist', 'excel', 'unfold', 'here', 'will', 'impress', 'even', 'most', 'experienc', 'sushi', 'enthusiast']",7,7,1,"Business Fine Dining (Elegant, Secure, Executive Atmosphere)"
14,Gabriel Kreuther,40.75397,-73.982025,"41 W. 42nd St., New York, 10036, USA",4,"Contemporary, Alsatian",2,"Distinctively housed at the base of the Grace building, this modern dining room happens to be perfect for celebrating special occasions. 
Dishes reflect global sensibilities with a strong creative edge, as in the Montauk red shrimp tartare crowned with a cayenne tuile, surrounded by a creamy jalapeño coulis. Foie gras arrives in myriad guises, perhaps as a seared lobe as rich as custard, surrounded by roasted quince, chestnuts and vanilla gastrique. Old-school luxuries extend right through to the cheese trolley. The cocktail list is dedicated to the history of Bryant Park across the street, while as an homage to the eponymous chef’s Alsatian heritage, the wine selection prominently features rieslings, pinot blancs and gewürztraminers.","['distinct', 'hous', 'base', 'grace', 'build', 'dine', 'room', 'happen', 'celebr', 'occas', 'dish', 'reflect', 'global', 'sensibl', 'strong', 'edg', 'montauk', 'red', 'shrimp', 'tartar', 'crown', 'cayenn', 'tuil', 'surround', 'creami', 'jalapeo', 'couli', 'foie', 'gra', 'arriv', 'myriad', 'guis', 'perhap', 'sear', 'lobe', 'rich', 'custard', 'surround', 'roast', 'quinc', 'chestnut', 'vanilla', 'gastriqu', 'oldschool', 'luxuri', 'extend', 'right', 'through', 'chees', 'trolley', 'cocktail', 'list', 'dedic', 'histori', 'bryant', 'park', 'across', 'street', 'while', 'homag', 'eponym', 'chef', 'alsatian', 'heritag', 'wine', 'select', 'promin', 'featur', 'riesl', 'pinot', 'blanc', 'gewrztramin']",0,0,1,"Business Fine Dining (Elegant, Secure, Executive Atmosphere)"
15,Le Pavillon,40.752517,-73.978369,"1 Vanderbilt Ave., New York, 10017, USA",4,"Contemporary, French",1,"It may have a classic-sounding name, but Le Pavillon resides in one of the city's newest skyscrapers. The elegant dining room, with its soaring ceilings, plate glass and warm palette, makes the well-heeled feel right at home. You'll rub shoulders with many at the bar, a prized perch crowned by a dramatic blown glass chandelier.
Chef Daniel Boulud and his talented team of Chefs Michael Balboni and Will Nacev skillfully prepare a contemporary, globally inflected carte dominated by seafood and vegetable-focused items. Recent highlights included torchetti pasta with Maryland jumbo lump crabmeat and a flourish of heirloom sweet peppers; or the amber-skinned rotisserie chicken breast with a root vegetable pot pie.","['may', 'classicsound', 'name', 'but', 'pavillon', 'resid', 'one', 'citi', 'newest', 'skyscrap', 'dine', 'room', 'soar', 'ceil', 'plate', 'glass', 'warm', 'palett', 'make', 'wellheel', 'feel', 'right', 'home', 'youll', 'rub', 'shoulder', 'mani', 'bar', 'prize', 'perch', 'crown', 'dramat', 'blown', 'glass', 'chandeli', 'chef', 'daniel', 'boulud', 'hi', 'talent', 'team', 'chef', 'michael', 'balboni', 'will', 'nacev', 'skill', 'prepar', 'contemporari', 'global', 'inflect', 'cart', 'domin', 'seafood', 'vegetablefocus', 'item', 'recent', 'highlight', 'includ', 'torchetti', 'pasta', 'maryland', 'jumbo', 'lump', 'crabmeat', 'flourish', 'heirloom', 'sweet', 'pepper', 'amberskin', 'rotisseri', 'chicken', 'breast', 'root', 'veget', 'pot', 'pie']",3,3,3,"Romantic & Intimate Dining (Calm, Private, Ambience-Focused)"
16,Jōji,40.753263,-73.978345,"1 Vanderbilt Ave., New York, 10017, USA",4,"Japanese, Sushi",1,"Hidden away in a corner of Grand Central, at the base of the ritzy One Vanderbilt building, Jōji presents a disarming oasis of calm and sophistication amidst the hustle and bustle. The meal begins with small plates that blend Japanese flavors with seasonal elements, as in a sashimi of buri with green apple, ginger, and yuzu zest, followed by nigiri featuring a blend of Koshihikari and Nanatsuboshi rice, carefully vinegared to showcase the flavor of the fish. The variety of excellent seafood, largely sourced from Toyosu Market, is impressive, and even devoted sybarites will leave satisfied. Expect an abundance of luxury ingredients (and commensurate pricing), like a lightly cooked langoustine layered with creamy petals of uni, or a delicate, silky chawanmushi topped with golden Osetra.","['hidden', 'away', 'corner', 'grand', 'central', 'base', 'ritzi', 'one', 'vanderbilt', 'build', 'jji', 'present', 'disarm', 'oasi', 'calm', 'sophist', 'amidst', 'hustl', 'bustl', 'meal', 'begin', 'small', 'plate', 'blend', 'japanes', 'flavor', 'element', 'sashimi', 'buri', 'green', 'appl', 'ginger', 'yuzu', 'zest', 'follow', 'nigiri', 'featur', 'blend', 'koshihikari', 'nanatsuboshi', 'rice', 'care', 'vinegar', 'showcas', 'flavor', 'fish', 'varieti', 'seafood', 'larg', 'sourc', 'toyosu', 'market', 'even', 'devot', 'sybarit', 'will', 'leav', 'satisfi', 'expect', 'abund', 'ingredi', 'commensur', 'price', 'like', 'lightli', 'cook', 'langoustin', 'layer', 'creami', 'petal', 'uni', 'delic', 'silki', 'chawanmushi', 'top', 'golden', 'osetra']",2,2,4,"Gourmet Exploration (Curated, Inventive, Detail-Oriented Culinary Experiences)"
17,Sushi Amane,40.751442,-73.971713,"245 E. 44th St., New York, 10017, USA",4,"Japanese, Sushi",1,"Diners arrive for their reservations at Sushi Amane and are quickly ushered downstairs to a silky wood counter with seating for slightly more than a handful manned by Chef Tomoyuki Hayashi. Attention to detail and consistency are his calling card. Savor creamy uni; delicious, lightly seared bonito with a dot of bitter green herb-laced sauce; steamed scallop wrapped in nori; and tender abalone, among other selections. Nigiri is given just a light brush of nikiri to keep the spotlight on its natural flavor, whether that’s the silvery kohada, white squid, or the golden anago. Fish is delivered every morning, including Saturday, allowing guests to experience the freshest and most seasonally minded product possible. ","['diner', 'arriv', 'reserv', 'sushi', 'aman', 'quickli', 'usher', 'downstair', 'silki', 'wood', 'counter', 'seat', 'slightli', 'more', 'than', 'hand', 'man', 'chef', 'tomoyuki', 'hayashi', 'attent', 'detail', 'consist', 'hi', 'call', 'card', 'savor', 'creami', 'uni', 'lightli', 'sear', 'bonito', 'dot', 'bitter', 'green', 'herblac', 'sauc', 'steam', 'scallop', 'wrap', 'nori', 'tender', 'abalon', 'among', 'other', 'select', 'nigiri', 'given', 'light', 'brush', 'nikiri', 'keep', 'spotlight', 'natur', 'flavor', 'whether', 'that', 'silveri', 'kohada', 'white', 'squid', 'golden', 'anago', 'fish', 'deliv', 'everi', 'morn', 'includ', 'saturday', 'allow', 'guest', 'experi', 'freshest', 'most', 'season', 'mind', 'product', 'possibl']",2,2,4,"Gourmet Exploration (Curated, Inventive, Detail-Oriented Culinary Experiences)"
18,Meju,40.74366,-73.955518,"5-28 49th Ave., Queens, 11101, USA",4,"Korean, Regional Cuisine",1,"Hiding behind a banchan shop in Long Island City, this chef’s counter is as much a classroom as it is a restaurant. Chef Hooni Kim is a worthy guide as he builds a deeply personal menu around traditional Korean ingredients that he’s been wild fermenting and aging for the last decade. Dazzling versions of doenjang, gochujang, ganjang and ssamjang shine with silky tofu, fried pancakes, Miyazaki beef and Niman Ranch pork. He brings the room together and impresses with carefully calibrated dishes that appear strikingly minimalist. Details are impressive, and many of the service pieces are handmade from Korean clay. An unassuming bowl of rice with kimchi is an homage to his mentor. It is a poignant finale that looks rather ordinary but has long-lasting impact.","['hide', 'behind', 'banchan', 'shop', 'long', 'island', 'citi', 'chef', 'counter', 'much', 'classroom', 'restaur', 'chef', 'hooni', 'kim', 'worthi', 'guid', 'build', 'deepli', 'person', 'menu', 'around', 'korean', 'ingredi', 'he', 'wild', 'ferment', 'age', 'last', 'decad', 'dazzl', 'version', 'doenjang', 'gochujang', 'ganjang', 'ssamjang', 'shine', 'silki', 'tofu', 'fri', 'pancak', 'miyazaki', 'beef', 'niman', 'ranch', 'pork', 'bring', 'room', 'togeth', 'impress', 'care', 'calibr', 'dish', 'appear', 'strikingli', 'minimalist', 'detail', 'mani', 'servic', 'piec', 'handmad', 'korean', 'clay', 'unassum', 'bowl', 'rice', 'kimchi', 'homag', 'hi', 'mentor', 'poignant', 'final', 'look', 'rather', 'ordinari', 'but', 'longlast', 'impact']",1,1,3,"Romantic & Intimate Dining (Calm, Private, Ambience-Focused)"
19,Kochi,40.761977,-73.993512,"652 Tenth Ave., New York, 10036, USA",4,"Korean, Contemporary",1,"The idea that tasting menus are hours-long and showy is far from true here, where an open kitchen is the obvious centerpiece. From here, a young team blitzes out an array of impressive grilled bites meant to be eaten with your hands—Kochi is Korean for skewer, after all.
Chef Sungchul Shim taps into his Korean roots and fine-dining pedigree to create a solid but playful menu. A bowl of finely diced raw steelhead trout is topped with pickled cherry tomatoes and cucumber with a tomato and basil foam, then Iberico pork is done three ways, from char siu and ssamjang to skewered with pickled apple. Blackberry lime sorbet with a Calpico and smoked vanilla oil foam and mezcal-soaked blackberries is the last hurrah.","['idea', 'tast', 'menu', 'hourslong', 'showi', 'far', 'true', 'here', 'where', 'open', 'kitchen', 'obviou', 'centerpiec', 'here', 'young', 'team', 'blitz', 'out', 'array', 'grill', 'bite', 'meant', 'eaten', 'handskochi', 'korean', 'skewer', 'after', 'chef', 'sungchul', 'shim', 'tap', 'hi', 'korean', 'root', 'finedin', 'pedigre', 'creat', 'solid', 'but', 'play', 'menu', 'bowl', 'fine', 'dice', 'raw', 'steelhead', 'trout', 'top', 'pickl', 'cherri', 'tomato', 'cucumb', 'tomato', 'basil', 'foam', 'then', 'iberico', 'pork', 'done', 'three', 'way', 'char', 'siu', 'ssamjang', 'skewer', 'pickl', 'appl', 'blackberri', 'lime', 'sorbet', 'calpico', 'smoke', 'vanilla', 'oil', 'foam', 'mezcalsoak', 'blackberri', 'last', 'hurrah']",0,0,1,"Business Fine Dining (Elegant, Secure, Executive Atmosphere)"
20,Mari,40.761559,-73.990465,"679 Ninth Ave., New York, 10036, USA",4,Korean,1,"Mari, which means “roll” in Korean, is Hell’s Kitchen’s latest destination from the talented Sungchul Shim, who made a name for himself at his tasting counter (Kochi) just down the street. Those familiar with casual Japanese handroll counters are in for a surprise as Chef Shim reimagines the genre as a tasting menu, primed with top-notch ingredients and Korean flavors.
Glistening planks of Scottish salmon; tender strips of cured mackerel; and three types of mushrooms are placed on beds of rice cradled in seaweed. Chefs work swiftly, moving from one roll to the next with nowhere to hide in this kitchen, flanked by counter seats on all sides. A tray of banchan and seafood closes out the meal.","['mari', 'which', 'mean', 'roll', 'korean', 'hell', 'kitchen', 'latest', 'destin', 'talent', 'sungchul', 'shim', 'who', 'made', 'name', 'himself', 'hi', 'tast', 'counter', 'kochi', 'down', 'street', 'those', 'familiar', 'casual', 'japanes', 'handrol', 'counter', 'surpris', 'chef', 'shim', 'reimagin', 'genr', 'tast', 'menu', 'prime', 'topnotch', 'ingredi', 'korean', 'flavor', 'glisten', 'plank', 'scottish', 'salmon', 'tender', 'strip', 'cure', 'mackerel', 'three', 'type', 'mushroom', 'place', 'bed', 'rice', 'cradl', 'seawe', 'chef', 'work', 'swiftli', 'move', 'one', 'roll', 'next', 'nowher', 'hide', 'kitchen', 'flank', 'counter', 'seat', 'side', 'tray', 'banchan', 'seafood', 'close', 'out', 'meal']",6,6,2,"Social Dining with Friends (Lively, Relaxed, Fun)"
21,Le Bernardin,40.76177,-73.98223,"155 W. 51st St., New York, 10019, USA",4,Seafood,3,"Maguy Le Coze and Eric Ripert’s icon has been entertaining the city’s movers and shakers for close to 30 years and its popularity remains undimmed. Seafood restaurants have no hiding place when it comes to cooking fish or crustaceans and this kitchen always hits its marks—whether that’s lusciously sweet, seared langoustine in a truffled broth or golden-brown fluke with a bouillabaisse enriched with sea urchin. While seafood remains Ripert's passion, his vegetarian tasting menu makes waves with dishes like the Himalayan morel, spring pea and fava bean casserole or the warm artichoke panaché with vegetable risotto and Périgord black truffle vinaigrette. Finish with purple sweet potato baba au whisky cloaked with caramelized pecan whipped cream.","['maguy', 'coze', 'eric', 'ripert', 'icon', 'entertain', 'citi', 'mover', 'shaker', 'close', 'year', 'popular', 'remain', 'undim', 'seafood', 'restaur', 'hide', 'place', 'when', 'come', 'cook', 'fish', 'crustacean', 'kitchen', 'alway', 'hit', 'markswheth', 'that', 'luscious', 'sweet', 'sear', 'langoustin', 'truffl', 'broth', 'goldenbrown', 'fluke', 'bouillabaiss', 'enrich', 'sea', 'urchin', 'while', 'seafood', 'remain', 'ripert', 'passion', 'hi', 'vegetarian', 'tast', 'menu', 'make', 'wave', 'dish', 'like', 'himalayan', 'morel', 'spring', 'pea', 'fava', 'bean', 'casserol', 'warm', 'artichok', 'panach', 'veget', 'risotto', 'prigord', 'black', 'truffl', 'vinaigrett', 'finish', 'purpl', 'sweet', 'potato', 'baba', 'whiski', 'cloak', 'caramel', 'pecan', 'whip', 'cream']",2,2,4,"Gourmet Exploration (Curated, Inventive, Detail-Oriented Culinary Experiences)"
22,The Modern,40.76106,-73.97628,"9 W. 53rd St., New York, 10019, USA",4,Contemporary,2,"The Modern is designed to capture the iconic feel of the MoMA in which it is housed. Art enthusiasts can't help ogling at its glorious surrounds; while excellent acoustics facilitating quiet conversations ensure a steady stream of couples and globe-trotters. The kitchen is state of the art, so for a truly special experience book the chef's table inside. The staff perform a veritable ballet as they present diners with such appealingly nuanced dishes as a seed cracker with aged cheddar and butternut squash butter; or eggs on eggs, starring none other than soft-boiled eggs with sturgeon caviar. Turbot roasted on the bone may then arrive alongside rich parmesan cream.
Nurse a digestif—and marvel at the timeless sculpture garden view —for serenity embodied.","['design', 'captur', 'icon', 'feel', 'moma', 'which', 'hous', 'art', 'enthusiast', 'cant', 'help', 'ogl', 'gloriou', 'surround', 'while', 'acoust', 'facilit', 'quiet', 'convers', 'ensur', 'steadi', 'stream', 'coupl', 'globetrott', 'kitchen', 'state', 'art', 'truli', 'experi', 'book', 'chef', 'tabl', 'insid', 'staff', 'perform', 'verit', 'ballet', 'present', 'diner', 'appealingli', 'nuanc', 'dish', 'seed', 'cracker', 'age', 'cheddar', 'butternut', 'squash', 'butter', 'egg', 'egg', 'star', 'none', 'other', 'than', 'softboil', 'egg', 'sturgeon', 'caviar', 'turbot', 'roast', 'bone', 'may', 'then', 'arriv', 'alongsid', 'rich', 'parmesan', 'cream', 'nurs', 'digestifand', 'marvel', 'timeless', 'sculptur', 'garden', 'view', 'seren', 'embodi']",6,6,2,"Social Dining with Friends (Lively, Relaxed, Fun)"
23,YingTao,40.765597,-73.98753,"805 9th Ave., New York, 10019, USA",4,"Contemporary, Chinese",1,"Owner Bolun Yao's beloved grandmother serves as both the namesake and culinary inspiration for this stylish Hell's Kitchen hideaway, an unassumingly ambitious project that aims to reinterpret Chinese cuisine through the lens of Western fine dining. Chef Jakub Baster lends his experienced hand to the effort, composing elegant dishes that blend a wide array of Chinese flavors and ingredients with elements of French technique and a contemporary style. The results are simultaneously inventive and familiar. Flavors tend toward subtlety, with careful attention paid to textures, as in a silky soy milk custard matched with celery root, and savory, mildly spiced doubanjiang, or rich crab noodles with egg yolk and smoked tobiko. To finish, a reimagining of nian gao (sweet rice cake) is sure to delight.","['owner', 'bolun', 'yao', 'belov', 'grandmoth', 'serv', 'both', 'namesak', 'culinari', 'inspir', 'hell', 'kitchen', 'hideaway', 'unassumingli', 'ambiti', 'project', 'aim', 'reinterpret', 'chines', 'cuisin', 'through', 'len', 'western', 'dine', 'chef', 'jakub', 'baster', 'lend', 'hi', 'experienc', 'hand', 'effort', 'compos', 'dish', 'blend', 'wide', 'array', 'chines', 'flavor', 'ingredi', 'element', 'french', 'techniqu', 'contemporari', 'style', 'result', 'simultan', 'invent', 'familiar', 'flavor', 'tend', 'toward', 'subtleti', 'care', 'attent', 'paid', 'textur', 'silki', 'soy', 'milk', 'custard', 'match', 'celeri', 'root', 'savori', 'mildli', 'spice', 'doubanjiang', 'rich', 'crab', 'noodl', 'egg', 'yolk', 'smoke', 'tobiko', 'finish', 'reimagin', 'nian', 'gao', 'sweet', 'rice', 'cake', 'sure', 'delight']",5,5,2,"Social Dining with Friends (Lively, Relaxed, Fun)"
24,Aquavit,40.76078,-73.97214,"65 E. 55th St., New York, 10022, USA",4,"Scandinavian, Contemporary",2,"No detail goes unnoticed at this contemporary Swedish beauty, sporting a sleek bar and open kitchen with Chef Emma Bengtsson at the helm. Enjoy the eponymous infused spirit along with bites from one of two dinner tasting menus. Expect glazed earthenware, slate platters and wooden boxes cradling the likes of a medallion of North Sea cod, torched ever so slightly, and accompanied by a light-textured mussel foam and petite wedges of roasted red endive. Lean and tender duck breast sided by a petite block of compressed leg meat is dressed tableside with a beet sauce enriched with duck jus. The meal may end with a composition of green apple and fennel featuring rye cake, apple ice, bitter caramel and whipped, smoked crème fraîche.","['detail', 'goe', 'unnot', 'contemporari', 'swedish', 'beauti', 'sport', 'sleek', 'bar', 'open', 'kitchen', 'chef', 'emma', 'bengtsson', 'helm', 'enjoy', 'eponym', 'infus', 'spirit', 'along', 'bite', 'one', 'two', 'dinner', 'tast', 'menu', 'expect', 'glaze', 'earthenwar', 'slate', 'platter', 'wooden', 'box', 'cradl', 'like', 'medallion', 'north', 'sea', 'cod', 'torch', 'ever', 'slightli', 'accompani', 'lighttextur', 'mussel', 'foam', 'petit', 'wedg', 'roast', 'red', 'endiv', 'lean', 'tender', 'duck', 'breast', 'side', 'petit', 'block', 'compress', 'leg', 'meat', 'dress', 'tablesid', 'beet', 'sauc', 'enrich', 'duck', 'ju', 'meal', 'may', 'end', 'composit', 'green', 'appl', 'fennel', 'featur', 'rye', 'cake', 'appl', 'ice', 'bitter', 'caramel', 'whip', 'smoke', 'crme', 'frach']",3,3,3,"Romantic & Intimate Dining (Calm, Private, Ambience-Focused)"
25,Per Se,40.768055,-73.982588,"10 Columbus Circle, New York, 10019, USA",4,"Contemporary, French",2,"An experience at Thomas Keller’s Per Se is one to be savored, recounted and remembered. Despite stellar views and a clever design allowing each table a view, your attention won’t stray from the plate. Such is the appeal of the place.
There are two menus, one of which is vegetarian and may highlight a playful twist on borscht, with red beet agnolotti and crème fraîche. Both menus end in a grand dessert finale, like seasonal confections as well as such classics as a cappuccino semifreddo served with brioche donuts. They do offer supplements using lavish ingredients, but unless you’re richer than Croesus, you needn’t consider them. Just put yourself in the chef's hands and relish a meal that is balanced, varied and as seasonal as it gets.","['experi', 'thoma', 'keller', 'per', 'one', 'savor', 'recount', 'rememb', 'despit', 'stellar', 'view', 'clever', 'design', 'allow', 'each', 'tabl', 'view', 'attent', 'wont', 'stray', 'plate', 'appeal', 'place', 'there', 'two', 'menu', 'one', 'which', 'vegetarian', 'may', 'highlight', 'play', 'twist', 'borscht', 'red', 'beet', 'agnolotti', 'crme', 'frach', 'both', 'menu', 'end', 'grand', 'dessert', 'final', 'like', 'confect', 'well', 'classic', 'cappuccino', 'semifreddo', 'serv', 'brioch', 'donut', 'offer', 'supplement', 'use', 'lavish', 'ingredi', 'but', 'unless', 'your', 'richer', 'than', 'croesu', 'neednt', 'consid', 'them', 'put', 'yourself', 'chef', 'hand', 'relish', 'meal', 'balanc', 'vari', 'get']",6,6,2,"Social Dining with Friends (Lively, Relaxed, Fun)"
26,Masa,40.76819,-73.98234,"10 Columbus Circle, New York, 10019, USA",4,"Japanese, Sushi",3,"There is nothing like an omakase in the care of Chef Masa Takayama. The commotion of Columbus Circle gives way to the calm, collected ceremony of a room anchored by a strikingly smooth hinoki counter. Everything is in place, as chefs and servers work with a kind of harmony that recalls ballet. Every decision, every move, is in the service of his distinctive style, which many have copied but none have mastered. Fragrant white and black truffles, pearly beads of Osetra caviar, and vibrant garnishes make for brilliant touches that straddle the line between luxury and excess. Few have both the imagination and the know-how to make foie gras nigiri, and few serve abalone so meltingly tender. It is a captivating experience that is singularly memorable.","['there', 'noth', 'like', 'omakas', 'care', 'chef', 'masa', 'takayama', 'commot', 'columbu', 'circl', 'give', 'way', 'calm', 'collect', 'ceremoni', 'room', 'anchor', 'strikingli', 'smooth', 'hinoki', 'counter', 'everyth', 'place', 'chef', 'server', 'work', 'kind', 'harmoni', 'recal', 'ballet', 'everi', 'decis', 'everi', 'move', 'servic', 'hi', 'distinct', 'style', 'which', 'mani', 'copi', 'but', 'none', 'master', 'fragrant', 'white', 'black', 'truffl', 'pearli', 'bead', 'osetra', 'caviar', 'vibrant', 'garnish', 'make', 'brilliant', 'touch', 'straddl', 'line', 'between', 'excess', 'few', 'both', 'imagin', 'knowhow', 'make', 'foie', 'gra', 'nigiri', 'few', 'serv', 'abalon', 'meltingli', 'tender', 'captiv', 'experi', 'singularli']",1,1,3,"Romantic & Intimate Dining (Calm, Private, Ambience-Focused)"
27,Jean-Georges,40.76907,-73.98155,"1 Central Park West, New York, 10023, USA",4,"Contemporary, French",2,"Chef Jean-Georges Vongerichten’s culinary empire stretches far and wide, but Central Park will always be his home. Chef de Cuisine Joseph Rhee and this team sustain a legacy defined by a mastery of French techniques and a respect for global flavors. The signature egg toast with caviar is an assured start before launching into an ever-evolving menu rich with precision and elegance. Efforts like tomatillo-lemon verbena jus, black truffle with za’atar, and sunflower seed ajo blanco demonstrate originality and boldness in spades. Those opting for the vegetarian menu will enjoy the season's best produce, like heirloom tomatoes composed with crunchy vegetable mignonette and spiced dressing. ","['chef', 'jeangeorg', 'vongerichten', 'culinari', 'empir', 'stretch', 'far', 'wide', 'but', 'central', 'park', 'will', 'alway', 'hi', 'home', 'chef', 'cuisin', 'joseph', 'rhee', 'team', 'sustain', 'legaci', 'defin', 'masteri', 'french', 'techniqu', 'respect', 'global', 'flavor', 'signatur', 'egg', 'toast', 'caviar', 'assur', 'start', 'befor', 'launch', 'everevolv', 'menu', 'rich', 'precis', 'eleg', 'effort', 'like', 'tomatillolemon', 'verbena', 'ju', 'black', 'truffl', 'zaatar', 'sunflow', 'seed', 'ajo', 'blanco', 'demonstr', 'origin', 'bold', 'spade', 'those', 'opt', 'vegetarian', 'menu', 'will', 'enjoy', 'season', 'best', 'produc', 'like', 'heirloom', 'tomato', 'compos', 'crunchi', 'veget', 'mignonett', 'spice', 'dress']",7,7,1,"Business Fine Dining (Elegant, Secure, Executive Atmosphere)"
28,Café Boulud,40.765169,-73.967619,"100 E. 63rd St., New York, 10065, USA",4,French,1,"A new and improved Café Boulud has been beautifully reborn on the storied corner of 63rd street and Park Avenue with Executive Chef Romain Paumier at the helm. The setting is appropriately posh and exudes Art Deco vibes.
Enjoy this unique prix fixe menu which highlights four inspirations: classic French cuisine; ""La Saison;"" vegetarian farmers' market dishes; and ""Le Voyage,"" offering an international focus. Choose one style of menu or handpick for a multicourse meal that is on-point with sharp execution and a soigné presentation. The array of impressive cooking here includes the likes of the signature black sea bass wrapped in crispy potatoes and sauced with a red wine reduction; seared scallops with Champagne beurre blanc; or lobster ravioli dressed with a vivid lobster bisque as well as preserved lemon curd.","['new', 'improv', 'caf', 'boulud', 'beauti', 'reborn', 'stori', 'corner', 'street', 'park', 'avenu', 'execut', 'chef', 'romain', 'paumier', 'helm', 'set', 'appropri', 'posh', 'exud', 'art', 'deco', 'vibe', 'enjoy', 'prix', 'fix', 'menu', 'which', 'highlight', 'four', 'inspir', 'classic', 'french', 'cuisin', 'saison', 'vegetarian', 'farmer', 'market', 'dish', 'voyag', 'offer', 'intern', 'focu', 'choos', 'one', 'style', 'menu', 'handpick', 'multicours', 'meal', 'onpoint', 'sharp', 'execut', 'soign', 'present', 'array', 'cook', 'here', 'includ', 'like', 'signatur', 'black', 'sea', 'bass', 'wrap', 'crispi', 'potato', 'sauc', 'red', 'wine', 'reduct', 'sear', 'scallop', 'champagn', 'beurr', 'blanc', 'lobster', 'ravioli', 'dress', 'vivid', 'lobster', 'bisqu', 'well', 'preserv', 'lemon', 'curd']",0,0,1,"Business Fine Dining (Elegant, Secure, Executive Atmosphere)"
29,Daniel,40.766752,-73.967504,"60 E. 65th St., New York, 10065, USA",4,French,1,"Daniel is a classic New York restaurant. For over thirty years, this fine dining room has been the spot for brokering deals and celebrating special occasions. With art from James Rosenquist complementing the coffered ceilings capped with signature Bernardaud porcelain chandeliers, it remains an iconic Upper East Side spot.
Executive Chef Eddy Leroux's multicourse tasting menus showcase high-quality ingredients and classic French cuisine. Recent highlights have included the kataifi-crusted Alaskan wild salmon topped with roe and crispy skin, followed by a half-moon of macadamia mousseline with praline, cookie ruse, and a cherry brandy anglaise. As might be expected, the wine list features an impressive collection of French wines.","['daniel', 'classic', 'new', 'york', 'restaur', 'over', 'thirti', 'year', 'dine', 'room', 'spot', 'broker', 'deal', 'celebr', 'occas', 'art', 'jame', 'rosenquist', 'complement', 'coffer', 'ceil', 'cap', 'signatur', 'bernardaud', 'porcelain', 'chandeli', 'remain', 'icon', 'upper', 'east', 'side', 'spot', 'execut', 'chef', 'eddi', 'leroux', 'multicours', 'tast', 'menu', 'showcas', 'highqual', 'ingredi', 'classic', 'french', 'cuisin', 'recent', 'highlight', 'includ', 'kataificrust', 'alaskan', 'wild', 'salmon', 'top', 'roe', 'crispi', 'skin', 'follow', 'halfmoon', 'macadamia', 'mousselin', 'pralin', 'cooki', 'ruse', 'cherri', 'brandi', 'anglais', 'might', 'expect', 'wine', 'list', 'featur', 'collect', 'french', 'wine']",5,5,2,"Social Dining with Friends (Lively, Relaxed, Fun)"
30,Sushi Noz,40.77384,-73.958275,"181 E. 78th St., New York, 10075, USA",4,"Japanese, Sushi",2,"There is a certain energy that courses through this sacred space, where every detail recreates an intimate Japanese refuge. Some of the tools alone are marvels, and Chef Nozomu Abe is a meticulous and engaging craftsman. When booking, keep an eye out for his dates and time slots.  
Commence with cooked dishes like pearly sea perch with fresh ponzu dipping sauce and slender pieces of meltingly tender ice fish. Miso soup is the perfect backdrop for silky-soft eel “noodles” with salted egg yolk cream and crispy tofu pieces, while sushi is jewel-like. True to Japanese hospitality, kimono-dressed staff and the chef himself see guests off with a spirit of gratitude. ","['there', 'certain', 'energi', 'cours', 'through', 'sacr', 'space', 'where', 'everi', 'detail', 'recreat', 'intim', 'japanes', 'refug', 'some', 'tool', 'alon', 'marvel', 'chef', 'nozomu', 'abe', 'meticul', 'engag', 'craftsman', 'when', 'book', 'keep', 'eye', 'out', 'hi', 'date', 'time', 'slot', 'commenc', 'cook', 'dish', 'like', 'pearli', 'sea', 'perch', 'ponzu', 'dip', 'sauc', 'slender', 'piec', 'meltingli', 'tender', 'ice', 'fish', 'miso', 'soup', 'backdrop', 'silkysoft', 'eel', 'noodl', 'salt', 'egg', 'yolk', 'cream', 'crispi', 'tofu', 'piec', 'while', 'sushi', 'jewellik', 'true', 'japanes', 'hospit', 'kimonodress', 'staff', 'chef', 'himself', 'see', 'guest', 'off', 'spirit', 'gratitud']",4,4,4,"Gourmet Exploration (Curated, Inventive, Detail-Oriented Culinary Experiences)"
31,Essential by Christophe,40.780833,-73.976657,"103 W. 77th St., New York, 10024, USA",4,"French, Contemporary",1,"Push past the heavy iron doors to this modern restaurant tucked at the base of a classic townhouse. Supple leather, brass touches and various shades of beige comprise the contemporary, elegant space, where a buzzy bar and a welcoming dining room await. 
Chef Christophe Bellanca's dishes echo a simple elegance, evidenced by plump white asparagus on a fragrant bergamot-flavored crème with a refreshing herb vinaigrette and paper-thin slices of watermelon radish. French technique is married with Asian flavors in a dish of three blue prawns with genmaicha tuille, and braised black sea bass with shiitake chutney, razor clams and a turmeric emulsion is memorable. For a light ending, the orange soufflé is bright and fragrant, especially when served with green cardamom ice cream.","['push', 'past', 'heavi', 'iron', 'door', 'restaur', 'tuck', 'base', 'classic', 'townhous', 'suppl', 'leather', 'brass', 'touch', 'variou', 'shade', 'beig', 'compris', 'contemporari', 'space', 'where', 'buzzi', 'bar', 'welcom', 'dine', 'room', 'await', 'chef', 'christoph', 'bellanca', 'dish', 'echo', 'simpl', 'eleg', 'evidenc', 'plump', 'white', 'asparagu', 'fragrant', 'bergamotflavor', 'crme', 'refresh', 'herb', 'vinaigrett', 'paperthin', 'slice', 'watermelon', 'radish', 'french', 'techniqu', 'marri', 'asian', 'flavor', 'dish', 'three', 'blue', 'prawn', 'genmaicha', 'tuill', 'brais', 'black', 'sea', 'bass', 'shiitak', 'chutney', 'razor', 'clam', 'turmer', 'emuls', 'light', 'end', 'orang', 'souffl', 'bright', 'fragrant', 'especi', 'when', 'serv', 'green', 'cardamom', 'ice', 'cream']",1,1,3,"Romantic & Intimate Dining (Calm, Private, Ambience-Focused)"
32,Icca,40.714134,-74.007713,"20 Warren St., New York, 10007, USA",4,"Japanese, Sushi",1,"Chef counters are a treat, but a seat in front of Chef Kazushige Suzuki feels like a best-kept secret. The room has a presence of its own, notable in scale and hidden away in the back past a cocktail bar. Friendly as ever and seemingly never in a hurry, the chef sources fish entirely from Japan and keeps his nigiri traditional with little more adornment than a brushing of nikiri.","['chef', 'counter', 'treat', 'but', 'seat', 'front', 'chef', 'kazushig', 'suzuki', 'feel', 'like', 'bestkept', 'secret', 'room', 'presenc', 'own', 'notabl', 'scale', 'hidden', 'away', 'back', 'past', 'cocktail', 'bar', 'friendli', 'ever', 'seemingli', 'never', 'hurri', 'chef', 'sourc', 'fish', 'entir', 'japan', 'keep', 'hi', 'nigiri', 'littl', 'more', 'adorn', 'than', 'brush', 'nikiri']",5,5,2,"Social Dining with Friends (Lively, Relaxed, Fun)"
33,Atera,40.71685,-74.005591,"77 Worth St., New York, 10013, USA",4,Contemporary,2,"Counter dining can sometimes be a cramped affair, but fortunately, this one is spacious enough to leave plenty of elbow room, allowing guests to enjoy the immersive experience in comfort. The kitchen, led by Danish chef Ronny Emborg, runs with a quiet tranquility that forms a sharp contrast to the boisterous playlist, which helps keep the room from feeling stuffy. The menu comprises numerous beguiling courses with global accents, featuring subtle flavors and deftly weaving together both delicacy and richness. A dish of minute, briny shigoku oysters strikes an intriguing balance between vegetal and fruit notes when matched with kiwi and cucumber, while a perfectly cooked morsel of halibut is bolstered with an impeccable buttery shrimp bisque.","['counter', 'dine', 'can', 'sometim', 'cramp', 'affair', 'but', 'fortun', 'one', 'spaciou', 'enough', 'leav', 'plenti', 'elbow', 'room', 'allow', 'guest', 'enjoy', 'immers', 'experi', 'comfort', 'kitchen', 'led', 'danish', 'chef', 'ronni', 'emborg', 'run', 'quiet', 'tranquil', 'form', 'sharp', 'contrast', 'boister', 'playlist', 'which', 'help', 'keep', 'room', 'feel', 'stuffi', 'menu', 'compris', 'numer', 'beguil', 'cours', 'global', 'accent', 'featur', 'subtl', 'flavor', 'deftli', 'weav', 'togeth', 'both', 'delicaci', 'rich', 'dish', 'minut', 'brini', 'shigoku', 'oyster', 'strike', 'intrigu', 'balanc', 'between', 'veget', 'fruit', 'note', 'when', 'match', 'kiwi', 'cucumb', 'while', 'perfectli', 'cook', 'morsel', 'halibut', 'bolster', 'impecc', 'butteri', 'shrimp', 'bisqu']",3,3,3,"Romantic & Intimate Dining (Calm, Private, Ambience-Focused)"
34,Shion 69 Leonard Street,40.71757,-74.00549,"69 Leonard St., New York, 10013, USA",4,"Japanese, Sushi",1,"There are just eight seats and a distinctive Japanese charm at Chef Shion Uino's quiet sushi-ya, which features prized, beautiful seafood sourced primarily from Japan (including impressive amount directly from fishermen in his hometown of Amakusa). Never, at any point, does it look like the chef is cutting from a filet he’s already sliced. The product is whole and luscious every time, which is all the more reason why the nigiri sees little beyond a dot of wasabi or a dab of nikiri. Regulars, of which there are many, are treated to special pieces throughout the evening and will recognize some of his signature dishes, like hairy crab dressed with Japanese black vinegar, as well as his unrivaled tamago, which tastes as perfect as it looks. ","['there', 'eight', 'seat', 'distinct', 'japanes', 'charm', 'chef', 'shion', 'uino', 'quiet', 'sushiya', 'which', 'featur', 'prize', 'seafood', 'sourc', 'primarili', 'japan', 'includ', 'amount', 'directli', 'fishermen', 'hi', 'hometown', 'amakusa', 'never', 'ani', 'point', 'doe', 'look', 'like', 'chef', 'cut', 'filet', 'he', 'alreadi', 'slice', 'product', 'whole', 'lusciou', 'everi', 'time', 'which', 'more', 'reason', 'whi', 'nigiri', 'see', 'littl', 'beyond', 'dot', 'wasabi', 'dab', 'nikiri', 'regular', 'which', 'there', 'mani', 'treat', 'piec', 'throughout', 'even', 'will', 'recogn', 'some', 'hi', 'signatur', 'dish', 'like', 'hairi', 'crab', 'dress', 'japanes', 'black', 'vinegar', 'well', 'hi', 'unriv', 'tamago', 'which', 'tast', 'look']",0,0,1,"Business Fine Dining (Elegant, Secure, Executive Atmosphere)"
35,Jungsik New York,40.718726,-74.009111,"2 Harrison St., New York, 10013, USA",4,"Korean, Contemporary",3,"Cool and polished, this dining room bears that perfectly downtown nexus of low-key yet elegant; with its dark and light color scheme and intimate proportions. Chef/owner Mr. Yim Jung Sik and Executive Chef Daeik Kim's Korean meal starts like many do, with an array of banchan; however, the presentation here is unlike any other; and it's just that creativity that makes dining here so distinctive. From there, the tasting menu unfolds to reveals delights such as slivers of raw striped jack with white kimchi and chilled fish bone broth; gorgeously crisped octopus with gochujang aioli; and dry-aged Arctic char in a pool of kimchi and red curry sauce. This is cooking that is highly original, impeccably executed, and enormously satisfying; a meal that makes you involuntarily nod to yourself while you’re eating.","['cool', 'polish', 'dine', 'room', 'bear', 'perfectli', 'downtown', 'nexu', 'lowkey', 'yet', 'dark', 'light', 'color', 'scheme', 'intim', 'proport', 'chefown', 'yim', 'jung', 'sik', 'execut', 'chef', 'daeik', 'kim', 'korean', 'meal', 'start', 'like', 'mani', 'array', 'banchan', 'howev', 'present', 'here', 'unlik', 'ani', 'other', 'creativ', 'make', 'dine', 'here', 'distinct', 'there', 'tast', 'menu', 'unfold', 'reveal', 'delight', 'sliver', 'raw', 'stripe', 'jack', 'white', 'kimchi', 'chill', 'fish', 'bone', 'broth', 'gorgeous', 'crisp', 'octopu', 'gochujang', 'aioli', 'dryag', 'arctic', 'char', 'pool', 'kimchi', 'red', 'curri', 'sauc', 'cook', 'highli', 'origin', 'impecc', 'execut', 'enorm', 'satisfi', 'meal', 'make', 'involuntarili', 'nod', 'yourself', 'while', 'your', 'eat']",7,7,1,"Business Fine Dining (Elegant, Secure, Executive Atmosphere)"
36,One White Street,40.71935,-74.006101,"1 White St., New York, 10013, USA",4,Contemporary,1,"This 19th-century townhouse, once the downtown hangout for John Lennon and Yoko Ono, has been transformed into a destination of culinary excellence, thanks to Chef Austin Johnson. The lower level operates more like a wine bar with crowds aplenty, while the higher floors offer the same seasonal tasting menu, starring products sourced from their upstate farm. Bold and clever flavors come easily to this kitchen team, as seen in cheddar gougères garnished with caviar and lemon zest, followed by a melting square of braised lamb with black garlic purée and charred Chinese celery.","['thcenturi', 'townhous', 'onc', 'downtown', 'hangout', 'john', 'lennon', 'yoko', 'ono', 'transform', 'destin', 'culinari', 'excel', 'thank', 'chef', 'austin', 'johnson', 'lower', 'level', 'oper', 'more', 'like', 'wine', 'bar', 'crowd', 'aplenti', 'while', 'higher', 'floor', 'offer', 'same', 'tast', 'menu', 'star', 'product', 'sourc', 'upstat', 'farm', 'bold', 'clever', 'flavor', 'come', 'easili', 'kitchen', 'team', 'seen', 'cheddar', 'gougr', 'garnish', 'caviar', 'lemon', 'zest', 'follow', 'melt', 'squar', 'brais', 'lamb', 'black', 'garlic', 'pure', 'char', 'chines', 'celeri']",7,7,1,"Business Fine Dining (Elegant, Secure, Executive Atmosphere)"
37,Crown Shy,40.706707,-74.008721,"70 Pine St., New York, 10005, USA",3,"Contemporary, American",1,"Crown Shy occupies a stunning setting in the landmark Art Deco tower, 70 Pine Street. The striking lobby leads to a modern dining room with soaring ceilings, marble floors, and expansive windows. It’s an undeniable feast for the senses, the energy made all the more palpable thanks to a long bar and an upbeat playlist. The kitchen, meanwhile, moves like clockwork with an approachably creative style. Gruyère fritters are a classic, as are the pillowy ricotta gnocchi, sometimes finished with vin jaune or, if the season is right, shaved white truffles. Charred carrots with razor clams and coconut curry as well as beef carpaccio with bagna cauda and lavash impress as well. Entrees like the jang-glazed pork katsu are begging to be shared.","['crown', 'shi', 'occupi', 'stun', 'set', 'landmark', 'art', 'deco', 'tower', 'pine', 'street', 'strike', 'lobbi', 'lead', 'dine', 'room', 'soar', 'ceil', 'marbl', 'floor', 'expans', 'window', 'undeni', 'feast', 'sens', 'energi', 'made', 'more', 'palpabl', 'thank', 'long', 'bar', 'upbeat', 'playlist', 'kitchen', 'meanwhil', 'move', 'like', 'clockwork', 'approach', 'style', 'gruyr', 'fritter', 'classic', 'pillowi', 'ricotta', 'gnocchi', 'sometim', 'finish', 'vin', 'jaun', 'season', 'right', 'shave', 'white', 'truffl', 'char', 'carrot', 'razor', 'clam', 'coconut', 'curri', 'well', 'beef', 'carpaccio', 'bagna', 'cauda', 'lavash', 'impress', 'well', 'entre', 'like', 'jangglaz', 'pork', 'katsu', 'beg', 'share']",1,1,3,"Romantic & Intimate Dining (Calm, Private, Ambience-Focused)"
38,Saga,40.706144,-74.007852,"70 Pine St., New York, 10005, USA",4,Contemporary,2,"In a landmark skyscraper that towers over the city, Saga is a jewel in every sense of the word. An aperitif from the terrace is a striking start before settling into one of several intimate rooms fit with peach and emerald velvet, green marble tables, and carved stone accents. An aura of class and comfort takes hold in preparation for a cuisine that is inspired and delightful. The team is currently presenting a roster of signatures. The likes of egg soufflé with caviar and bonito foam as well as black bass and scallop with carrot-ginger curry lead to a dry-aged duck tagine served with msemmen—griddled flatbread—and all the trimmings. Dessert displays particular strength for its sharp focus, say an arrangement of treats with sweet potato and birch as a theme.","['landmark', 'skyscrap', 'tower', 'over', 'citi', 'saga', 'jewel', 'everi', 'sens', 'word', 'aperitif', 'terrac', 'strike', 'start', 'befor', 'settl', 'one', 'sever', 'intim', 'room', 'fit', 'peach', 'emerald', 'velvet', 'green', 'marbl', 'tabl', 'carv', 'stone', 'accent', 'aura', 'class', 'comfort', 'take', 'hold', 'prepar', 'cuisin', 'inspir', 'delight', 'team', 'current', 'present', 'roster', 'signatur', 'like', 'egg', 'souffl', 'caviar', 'bonito', 'foam', 'well', 'black', 'bass', 'scallop', 'carrotging', 'curri', 'lead', 'dryag', 'duck', 'tagin', 'serv', 'msemmengriddl', 'flatbreadand', 'trim', 'dessert', 'display', 'particular', 'strength', 'sharp', 'focu', 'say', 'arrang', 'treat', 'sweet', 'potato', 'birch', 'theme']",6,6,2,"Social Dining with Friends (Lively, Relaxed, Fun)"
39,Le Coucou,40.719162,-74.00001,"138 Lafayette St., New York, 10013, USA",4,French,1,Le Coucou has a white-hot scene that’s equal parts classic and cool. Patrons linger late into the night enjoying exceptional service and a view of the bustling open kitchen.,"['coucou', 'whitehot', 'scene', 'that', 'equal', 'part', 'classic', 'cool', 'patron', 'linger', 'late', 'night', 'enjoy', 'servic', 'view', 'bustl', 'open', 'kitchen']",5,5,2,"Social Dining with Friends (Lively, Relaxed, Fun)"
40,Sushi Ichimura,40.721784,-74.010002,"412 Greenwich St., New York, 10013, USA",4,"Japanese, Sushi",1,"Among real sushi enthusiasts, Chef Eiji Ichimura is a household name. His career in the city spans two decades, and his commitment to edomae-style omakase has shaped this city’s sushi sensibility. He now finds himself in Tribeca behind a 10-seat counter made from gorgeous cedar wood. In some ways, there are no surprises: He works meticulously and at his own pace, slicing fish flown in from Japan three times a week. His rice is defined and generally warm, and his uni and caviar sandwich as well as his double and triple-layer tuna nigiri are still signatures. There’s just one thing: the price is steep, but that doesn’t faze his regulars, of which there are many. But regular or not, he treats everyone like a guest of his home.","['among', 'real', 'sushi', 'enthusiast', 'chef', 'eiji', 'ichimura', 'household', 'name', 'hi', 'career', 'citi', 'span', 'two', 'decad', 'hi', 'commit', 'edomaestyl', 'omakas', 'shape', 'citi', 'sushi', 'sensibl', 'now', 'find', 'himself', 'tribeca', 'behind', 'seat', 'counter', 'made', 'cedar', 'wood', 'some', 'way', 'there', 'surpris', 'work', 'meticul', 'hi', 'own', 'pace', 'slice', 'fish', 'flown', 'japan', 'three', 'time', 'week', 'hi', 'rice', 'defin', 'gener', 'warm', 'hi', 'uni', 'caviar', 'sandwich', 'well', 'hi', 'doubl', 'triplelay', 'tuna', 'nigiri', 'still', 'signatur', 'there', 'one', 'thing', 'price', 'steep', 'but', 'doesnt', 'faze', 'hi', 'regular', 'which', 'there', 'mani', 'but', 'regular', 'not', 'treat', 'everyon', 'like', 'guest', 'hi', 'home']",0,0,1,"Business Fine Dining (Elegant, Secure, Executive Atmosphere)"
41,L’Abeille,40.721939,-74.009951,"412 Greenwich St., New York, 10013, USA",4,"French, Contemporary",1,"L’Abeille reflects the luxurious charms of TriBeCa from its corner perch in this prized zip code. The restaurant is a darling space designed to the hilt with velvet cushioned seats and booths, a striking marble bar and handsome tables set with Christofle cutlery. The young Chef Mitsunobu Nagae is a calm, collected presence in the open kitchen, and years spent working at Joël Robuchon restaurants worldwide are evident. A harmonious union of French cooking with Japanese sensibilities, Nagae’s food is immediately approachable. From grilled trout with Champagne caviar sauce and scallion oil to lychee mousse with strawberry and shiso, each course is a vision of refinement. Charming servers in fitted suits roam the floor, keeping close watch on every seat.","['labeil', 'reflect', 'charm', 'tribeca', 'corner', 'perch', 'prize', 'zip', 'code', 'restaur', 'darl', 'space', 'design', 'hilt', 'velvet', 'cushion', 'seat', 'booth', 'strike', 'marbl', 'bar', 'handsom', 'tabl', 'set', 'christofl', 'cutleri', 'young', 'chef', 'mitsunobu', 'naga', 'calm', 'collect', 'presenc', 'open', 'kitchen', 'year', 'spent', 'work', 'jol', 'robuchon', 'restaur', 'worldwid', 'evid', 'harmoni', 'union', 'french', 'cook', 'japanes', 'sensibl', 'naga', 'food', 'immedi', 'approach', 'grill', 'trout', 'champagn', 'caviar', 'sauc', 'scallion', 'oil', 'lyche', 'mouss', 'strawberri', 'shiso', 'each', 'cours', 'vision', 'refin', 'server', 'fit', 'suit', 'roam', 'floor', 'keep', 'close', 'watch', 'everi', 'seat']",3,3,3,"Romantic & Intimate Dining (Calm, Private, Ambience-Focused)"
42,Corima,40.714656,-73.992907,"3 Allen St., New York, 10002, USA",4,"Mexican, Contemporary",1,"On the edge of Chinatown, Chef Fidel Caballero is not holding anything back. Whether you sit at the kitchen counter for the ambitious tasting menu or order à la carte in the boisterous dining room, the cooking is a singularly original and bold celebration of Mexican cuisine. If anything, there must be an order of sourdough tortillas somewhere on the table. Made with Sonoran wheat and chicken fat, these delicate, perfectly griddled discs served with recado negro butter will lock in a return visit. Better yet, this won’t be the only course worth returning for. The likes of lobster nicuatole, black cod with salsa Veracruzana, and sweetbreads with bitter almond foam make for lasting impressions. From the bar, find Mexican spirits and natural wines.","['edg', 'chinatown', 'chef', 'fidel', 'caballero', 'not', 'hold', 'anyth', 'back', 'whether', 'sit', 'kitchen', 'counter', 'ambiti', 'tast', 'menu', 'order', 'cart', 'boister', 'dine', 'room', 'cook', 'singularli', 'origin', 'bold', 'celebr', 'mexican', 'cuisin', 'anyth', 'there', 'must', 'order', 'sourdough', 'tortilla', 'somewher', 'tabl', 'made', 'sonoran', 'wheat', 'chicken', 'fat', 'these', 'delic', 'perfectli', 'griddl', 'disc', 'serv', 'recado', 'negro', 'butter', 'will', 'lock', 'return', 'visit', 'better', 'yet', 'wont', 'onli', 'cours', 'worth', 'return', 'like', 'lobster', 'nicuatol', 'black', 'cod', 'salsa', 'veracruzana', 'sweetbread', 'bitter', 'almond', 'foam', 'make', 'last', 'impress', 'bar', 'find', 'mexican', 'spirit', 'natur', 'wine']",5,5,2,"Social Dining with Friends (Lively, Relaxed, Fun)"
43,Dirt Candy,40.71794,-73.99087,"86 Allen St., New York, 10002, USA",4,"Vegetarian, Vegan",1,"Chef Amanda Cohen was an advocate of vegetable- and plant-based cooking long before it was cool, and her Lower East Side flagship continues to flourish as a pioneer in ethical eating with refined technique. Now, it enters an exciting new chapter in its long history. A single tasting menu yields a breadth of dishes that never masquerade as meat. A simple-seeming salad is anything but, with a blend of fresh and pickled iceberg lettuce with roasted celtuce, crispy puffed rice, and labneh that hits every mark. Then, a single yeasted donut is filled with a tomato, topped with smoked feta, and finished with concassé cherry tomatoes for an inventive take on a single ingredient. Dessert, too, follows in the same imaginative vein, with savory onions making their way into sweet dishes. A meal of this caliber is a true experience, and guests are sure to leave feeling nourished.","['chef', 'amanda', 'cohen', 'advoc', 'veget', 'plantbas', 'cook', 'long', 'befor', 'cool', 'her', 'lower', 'east', 'side', 'flagship', 'continu', 'flourish', 'pioneer', 'ethic', 'eat', 'refin', 'techniqu', 'now', 'enter', 'excit', 'new', 'chapter', 'long', 'histori', 'singl', 'tast', 'menu', 'yield', 'breadth', 'dish', 'never', 'masquerad', 'meat', 'simpleseem', 'salad', 'anyth', 'but', 'blend', 'pickl', 'iceberg', 'lettuc', 'roast', 'celtuc', 'crispi', 'puf', 'rice', 'labneh', 'hit', 'everi', 'mark', 'then', 'singl', 'yeast', 'donut', 'fill', 'tomato', 'top', 'smoke', 'feta', 'finish', 'concass', 'cherri', 'tomato', 'invent', 'take', 'singl', 'ingredi', 'dessert', 'too', 'follow', 'same', 'imagin', 'vein', 'savori', 'onion', 'make', 'way', 'sweet', 'dish', 'meal', 'calib', 'true', 'experi', 'guest', 'sure', 'leav', 'feel', 'nourish']",3,3,3,"Romantic & Intimate Dining (Calm, Private, Ambience-Focused)"
44,César,40.727178,-74.007609,"333 Hudson St., New York, 10013, USA",4,"Contemporary, Seafood",2,"César Ramirez is one of the few chefs who, night after night, has the difficult task of meeting his own singular standards of high-wire precision. His new downtown restaurant brings a sleek, minimal look to a century-old address. As might be expected, world-class seafood plays a large role in his tasting menu which features such delights as a morsel of blackthroat seaperch from Chiba, crudo of fluke from Jeju Island, and langoustine from Norway dressed with caviar and smoked trout. A masterful hand with sauces and a sense for harmonious, exacting combinations demonstrate both creativity and maturity. An eager service team oversees the spacious room where counter and table seating alike offer a prime vantage point for watching this kinetic kitchen.","['csar', 'ramirez', 'one', 'few', 'chef', 'who', 'night', 'after', 'night', 'difficult', 'task', 'meet', 'hi', 'own', 'singular', 'standard', 'highwir', 'precis', 'hi', 'new', 'downtown', 'restaur', 'bring', 'sleek', 'minim', 'look', 'centuryold', 'address', 'might', 'expect', 'worldclass', 'seafood', 'play', 'larg', 'role', 'hi', 'tast', 'menu', 'which', 'featur', 'delight', 'morsel', 'blackthroat', 'seaperch', 'chiba', 'crudo', 'fluke', 'jeju', 'island', 'langoustin', 'norway', 'dress', 'caviar', 'smoke', 'trout', 'master', 'hand', 'sauc', 'sens', 'harmoni', 'exact', 'combin', 'demonstr', 'both', 'creativ', 'matur', 'eager', 'servic', 'team', 'overse', 'spaciou', 'room', 'where', 'counter', 'tabl', 'seat', 'alik', 'offer', 'prime', 'vantag', 'point', 'watch', 'kinet', 'kitchen']",2,2,4,"Gourmet Exploration (Curated, Inventive, Detail-Oriented Culinary Experiences)"
45,Torrisi,40.724364,-73.995278,"275 Mulberry St., New York, 10012, USA",4,"Contemporary, Italian-American",1,"There is perfection in the details at Torrisi, where waiters are crisply dressed in dinner jackets and tables are draped in pressed linens, but the buzzy warmth is as charming as the good looks. Nestled inside the landmark Puck Building, this highly imaginative restaurant expertly balances the creative and the familiar. Nothing feels copied or contrived, and while some of the dishes may seem familiar, they've all been revamped with panache. The team caters to excited diners who feast on items like tuna with pickled caponata, penne with sauteed baby chanterelles in a luscious butter sauce, and an Italian riff on Dover sole with Francese sauce. Affogato arrives in an oversized martini glass with vanilla ice cream, chocolate fudge, and an espresso granita.","['there', 'perfect', 'detail', 'torrisi', 'where', 'waiter', 'crispli', 'dress', 'dinner', 'jacket', 'tabl', 'drape', 'press', 'linen', 'but', 'buzzi', 'warmth', 'look', 'nestl', 'insid', 'landmark', 'puck', 'build', 'highli', 'imagin', 'restaur', 'expertli', 'balanc', 'familiar', 'noth', 'feel', 'copi', 'contriv', 'while', 'some', 'dish', 'may', 'seem', 'familiar', 'theyv', 'revamp', 'panach', 'team', 'cater', 'excit', 'diner', 'who', 'feast', 'item', 'like', 'tuna', 'pickl', 'caponata', 'penn', 'saute', 'babi', 'chanterel', 'lusciou', 'butter', 'sauc', 'italian', 'riff', 'dover', 'sole', 'frances', 'sauc', 'affogato', 'arriv', 'overs', 'martini', 'glass', 'vanilla', 'ice', 'cream', 'chocol', 'fudg', 'espresso', 'granita']",2,2,4,"Gourmet Exploration (Curated, Inventive, Detail-Oriented Culinary Experiences)"
46,The Musket Room,40.723915,-73.99375,"265 Elizabeth St., New York, 10012, USA",4,"Contemporary, American",1,"Sleek glass-framed doors are a noticeable reprieve from the bustling stretch upon which The Musket Room is set. Inside, the space is rustic and cozy—think Danish-style chairs, industrial lighting, and midcentury modern furniture.","['sleek', 'glassfram', 'door', 'notic', 'repriev', 'bustl', 'stretch', 'upon', 'which', 'musket', 'room', 'set', 'insid', 'space', 'rustic', 'cozythink', 'danishstyl', 'chair', 'industri', 'light', 'midcenturi', 'furnitur']",0,0,1,"Business Fine Dining (Elegant, Secure, Executive Atmosphere)"
47,Estela,40.72471,-73.9948,"47 E. Houston St., New York, 10012, USA",4,"Contemporary, American",1,"This boisterous SoHo alcove is an ideal place to convene with friends over exquisite nibbles and quenching cocktails. The talented chef behind this operation, Ignacio Mattos, is unfaltering and impressively consistent in his creative renditions of such bold and iconic dishes as ricotta dumplings with mushrooms and Pecorino Sardo. The menu also offers an array of shareable plates that changes regularly, like the mound of warm crab cloaked by shaved celeriac. Dinner might kick off with perfect, sashimi-grade tuna pounded thin and dressed with a dollop of inky pil pil sauce or enticingly plated fried arroz negro scattered with tender squid and hazelnut-studded romesco.","['boister', 'soho', 'alcov', 'ideal', 'place', 'conven', 'friend', 'over', 'exquisit', 'nibbl', 'quench', 'cocktail', 'talent', 'chef', 'behind', 'oper', 'ignacio', 'matto', 'unfalt', 'impress', 'consist', 'hi', 'rendit', 'bold', 'icon', 'dish', 'ricotta', 'dumpl', 'mushroom', 'pecorino', 'sardo', 'menu', 'offer', 'array', 'shareabl', 'plate', 'chang', 'regularli', 'like', 'mound', 'warm', 'crab', 'cloak', 'shave', 'celeriac', 'dinner', 'might', 'kick', 'off', 'sashimigrad', 'tuna', 'pound', 'thin', 'dress', 'dollop', 'inki', 'pil', 'pil', 'sauc', 'enticingli', 'plate', 'fri', 'arroz', 'negro', 'scatter', 'tender', 'squid', 'hazelnutstud', 'romesco']",3,3,3,"Romantic & Intimate Dining (Calm, Private, Ambience-Focused)"
48,Torien,40.724706,-73.993269,"292 Elizabeth St., New York, 10012, USA",4,"Japanese, Yakitori",1,"This sibling to Torishiki in Tokyo arrives to NYC by way of NoHo. Blacked-out windows mark its entrance; diners are then buzzed in at street level, both of which add to the mysterious proceedings. A staff member then pulls back a curtain—et voila—you're here. Inside, Executive Chef Hideo An may be found working his skills like a master pianist—turning, fanning, saucing and brushing. It's a pristine workspace and the menu is a tribute to the yakitori tradition. Binchotan charcoal plays as vital a role as the fowl itself, with the aroma becoming one with the space and skewer.","['sibl', 'torishiki', 'tokyo', 'arriv', 'nyc', 'way', 'noho', 'blackedout', 'window', 'mark', 'entranc', 'diner', 'then', 'buzz', 'street', 'level', 'both', 'which', 'add', 'mysteri', 'proceed', 'staff', 'member', 'then', 'pull', 'back', 'curtainet', 'voilayour', 'here', 'insid', 'execut', 'chef', 'hideo', 'may', 'found', 'work', 'hi', 'skill', 'like', 'master', 'pianistturn', 'fan', 'sauc', 'brush', 'pristin', 'workspac', 'menu', 'tribut', 'yakitori', 'tradit', 'binchotan', 'charcoal', 'play', 'vital', 'role', 'fowl', 'itself', 'aroma', 'becom', 'one', 'space', 'skewer']",2,2,4,"Gourmet Exploration (Curated, Inventive, Detail-Oriented Culinary Experiences)"
49,Yoshino,40.726283,-73.992039,"342 Bowery, New York, 10012, USA",4,"Japanese, Sushi",1,"Revered Tokyo chef Tadashi “Edowan” Yoshida has taken NYC by storm, as his latest venture was received with pomp, glory and of course, sold-out seats. Named for the town in Nara Prefecture where his father hails, there is a precise quality to every facet of this space—as in the hinoki counter (sourced from a 300-year-old tree) and hand-made chairs to the knives crafted by a master from Saga Prefecture.","['rever', 'tokyo', 'chef', 'tadashi', 'edowan', 'yoshida', 'taken', 'nyc', 'storm', 'hi', 'latest', 'ventur', 'receiv', 'pomp', 'glori', 'cours', 'soldout', 'seat', 'name', 'town', 'nara', 'prefectur', 'where', 'hi', 'father', 'hail', 'there', 'precis', 'everi', 'facet', 'spacea', 'hinoki', 'counter', 'sourc', 'yearold', 'tree', 'handmad', 'chair', 'knive', 'craft', 'master', 'saga', 'prefectur']",2,2,4,"Gourmet Exploration (Curated, Inventive, Detail-Oriented Culinary Experiences)"
50,63 Clinton,40.719483,-73.984993,"63 Clinton St., New York, 10002, USA",4,Contemporary,1,"It would be easy to underestimate this restaurant, located on an unremarkable corner and within the shell of a former pizzeria. However, that would be a shame, as the tasting menu, under the calm leadership of Chef Samuel Clonts, is anything but ordinary. In fact, diners can expect a wonderful and surprising meal with an eye towards finesse.","['would', 'easi', 'underestim', 'restaur', 'locat', 'unremark', 'corner', 'within', 'shell', 'former', 'pizzeria', 'howev', 'would', 'shame', 'tast', 'menu', 'under', 'calm', 'leadership', 'chef', 'samuel', 'clont', 'anyth', 'but', 'ordinari', 'fact', 'diner', 'can', 'expect', 'surpris', 'meal', 'eye', 'toward', 'finess']",0,0,1,"Business Fine Dining (Elegant, Secure, Executive Atmosphere)"
51,Sushi Nakazawa,40.731716,-74.00451,"23 Commerce St., New York, 10014, USA",4,"Japanese, Sushi",1,"For a truly memorable sushi adventure, head to this sleek and contemporary ten-seat counter to discover flavorful and fatty cuts of fish, available at a more palatable price point compared to many of the city’s other notable sushi counters. Chef Daisuke Nakazawa’s signature style combines supremely tender fish with perfectly seasoned rice, a spark of wasabi and judicious brush of nikiri for consistently excellent results.","['truli', 'sushi', 'adventur', 'head', 'sleek', 'contemporari', 'tenseat', 'counter', 'discov', 'flavor', 'fatti', 'cut', 'fish', 'avail', 'more', 'palat', 'price', 'point', 'compar', 'mani', 'citi', 'other', 'notabl', 'sushi', 'counter', 'chef', 'daisuk', 'nakazawa', 'signatur', 'style', 'combin', 'suprem', 'tender', 'fish', 'perfectli', 'season', 'rice', 'spark', 'wasabi', 'judici', 'brush', 'nikiri', 'consist', 'result']",3,3,3,"Romantic & Intimate Dining (Calm, Private, Ambience-Focused)"
52,Family Meal at Blue Hill,40.731971,-73.999639,"75 Washington Pl., New York, 10011, USA",4,American,1,"Knowing when to leave something alone, whether you’re a painter, singer or cook, requires confidence in your material and your own ability. Dan Barber’s New York City outpost displays its utter trust in the products at hand by not interfering with them too much but also by giving them space to let their natural flavors shine.","['know', 'when', 'leav', 'someth', 'alon', 'whether', 'your', 'painter', 'singer', 'cook', 'requir', 'confid', 'materi', 'own', 'abil', 'dan', 'barber', 'new', 'york', 'citi', 'outpost', 'display', 'utter', 'trust', 'product', 'hand', 'not', 'interf', 'them', 'too', 'much', 'but', 'give', 'them', 'space', 'let', 'natur', 'flavor', 'shine']",6,6,2,"Social Dining with Friends (Lively, Relaxed, Fun)"
53,Jeju Noodle Bar,40.732952,-74.00744,"679 Greenwich St., New York, 10014, USA",3,Korean,1,"Settle in to your perch at one of the tables, or (preferably) at the engaging counter where you can watch each dish come together. If that doesn't have your taste buds tingling, the kitchen's concise number of unique items at a steal of a price will hit the spot. Persian cucumber kimchi with a spicy plum dressing, shiso and sesame seeds is a delight, while the aroma of pork bone broth that precedes the arrival of gochu ramyun brimming with curly noodles, bean sprouts and pickled cabbage is a veritable thesis on ace ingredients. Pyunche salad mingling sushi-grade amberjack is a simple yet delicious wonder. Not far behind is the surprising toro ssam bap, highlighting the eponymous fatty fish with scrambled egg, tobiko and toasted seaweed.","['settl', 'perch', 'one', 'tabl', 'prefer', 'engag', 'counter', 'where', 'can', 'watch', 'each', 'dish', 'come', 'togeth', 'doesnt', 'tast', 'bud', 'tingl', 'kitchen', 'concis', 'number', 'item', 'steal', 'price', 'will', 'hit', 'spot', 'persian', 'cucumb', 'kimchi', 'spici', 'plum', 'dress', 'shiso', 'sesam', 'seed', 'delight', 'while', 'aroma', 'pork', 'bone', 'broth', 'preced', 'arriv', 'gochu', 'ramyun', 'brim', 'curli', 'noodl', 'bean', 'sprout', 'pickl', 'cabbag', 'verit', 'thesi', 'ace', 'ingredi', 'pyunch', 'salad', 'mingl', 'sushigrad', 'amberjack', 'simpl', 'yet', 'wonder', 'not', 'far', 'behind', 'surpris', 'toro', 'ssam', 'bap', 'highlight', 'eponym', 'fatti', 'fish', 'scrambl', 'egg', 'tobiko', 'toast', 'seawe']",2,2,4,"Gourmet Exploration (Curated, Inventive, Detail-Oriented Culinary Experiences)"
54,Red Paper Clip,40.733169,-74.005433,"120 Christopher St., New York, 10014, USA",4,Contemporary,1,"Blue Hill at Stone Barns alum Chef Kevin Chen made a name for himself with a series of pop-ups before establishing this stylish Asian-leaning delight. It's nestled inside a narrow storefront, but look for the large red paper clip—it's the only sign you've arrived. Inside, the space is left simple to focus all attention on the inventive food.","['blue', 'hill', 'stone', 'barn', 'alum', 'chef', 'kevin', 'chen', 'made', 'name', 'himself', 'seri', 'popup', 'befor', 'establish', 'asianlean', 'delight', 'nestl', 'insid', 'narrow', 'storefront', 'but', 'look', 'larg', 'red', 'paper', 'clipit', 'onli', 'sign', 'youv', 'arriv', 'insid', 'space', 'left', 'simpl', 'focu', 'attent', 'invent', 'food']",7,7,1,"Business Fine Dining (Elegant, Secure, Executive Atmosphere)"
55,Clover Hill,40.693381,-73.998577,"20 Columbia Pl., Brooklyn, 11201, USA",4,"Contemporary, Latin American",1,"Squirreled away on a quiet street in Brooklyn Heights, this intimate restaurant is a charming box of elegance and comfort. Under the leadership of Chef Sam Rogers, this tiny but mighty kitchen now enters a new chapter. He and his team are a focused bunch, working in perfect sync to deliver an abundance of courses that draw inspiration from Latin America. Little tarts stacked with poblano peppers and guanciale give way to a single boiled potato coated in a Huancaína-inspired sauce flecked with caviar. Find spice and smoke deployed across a range of local fish and American wagyu, with one highlight being a grilled, dry-aged sirloin paired with a stunning cabbage puree. Service matches the setting, quiet and calm in all the right ways.","['squirrel', 'away', 'quiet', 'street', 'brooklyn', 'height', 'intim', 'restaur', 'box', 'eleg', 'comfort', 'under', 'leadership', 'chef', 'sam', 'roger', 'tini', 'but', 'mighti', 'kitchen', 'now', 'enter', 'new', 'chapter', 'hi', 'team', 'focus', 'bunch', 'work', 'sync', 'deliv', 'abund', 'cours', 'draw', 'inspir', 'latin', 'america', 'littl', 'tart', 'stack', 'poblano', 'pepper', 'guancial', 'give', 'way', 'singl', 'boil', 'potato', 'coat', 'huancanainspir', 'sauc', 'fleck', 'caviar', 'find', 'spice', 'smoke', 'deploy', 'across', 'rang', 'fish', 'american', 'wagyu', 'one', 'highlight', 'be', 'grill', 'dryag', 'sirloin', 'pair', 'stun', 'cabbag', 'pure', 'servic', 'match', 'set', 'quiet', 'calm', 'right', 'way']",6,6,2,"Social Dining with Friends (Lively, Relaxed, Fun)"
56,Frevo,40.733199,-73.998822,"48 W. 8th St., New York, 10011, USA",4,Contemporary,1,"Frevo is that rare restaurant that flies just under the radar but deserves to be in the spotlight, as Chef Franco Sampogna and his team have serious resumes. It's a tasting menu-only spot that doubles as a gallery; in fact, even the entrance is as artistic as the canvases lining its walls. There are just 18 counter seats and a table for six here where the crew plates contemporary French dishes. Sea scallops seared a la plancha and plated with a saffron sauce dotted with Amaretto is a clever play on flavors. Madai grilled over binchotan gives the dense, silken fish a gorgeously crisped skin, while thinly shaved Comte cheese, aged 36-months, is paired with honey ice cream for a delightful contrast of savory and sweet.","['frevo', 'rare', 'restaur', 'fli', 'under', 'radar', 'but', 'deserv', 'spotlight', 'chef', 'franco', 'sampogna', 'hi', 'team', 'seriou', 'resum', 'tast', 'menuonli', 'spot', 'doubl', 'galleri', 'fact', 'even', 'entranc', 'artist', 'canvas', 'line', 'wall', 'there', 'counter', 'seat', 'tabl', 'six', 'here', 'where', 'crew', 'plate', 'contemporari', 'french', 'dish', 'sea', 'scallop', 'sear', 'plancha', 'plate', 'saffron', 'sauc', 'dot', 'amaretto', 'clever', 'play', 'flavor', 'madai', 'grill', 'over', 'binchotan', 'give', 'dens', 'silken', 'fish', 'gorgeous', 'crisp', 'skin', 'while', 'thinli', 'shave', 'comt', 'chees', 'age', 'month', 'pair', 'honey', 'ice', 'cream', 'delight', 'contrast', 'savori', 'sweet']",0,0,1,"Business Fine Dining (Elegant, Secure, Executive Atmosphere)"
57,Shmoné,40.73329,-73.998603,"61 W. 8th St., New York, 10011, USA",4,"Israeli, Middle Eastern",1,"This small, sleek space punches way above its weight with dazzling neo-Levantine cuisine. Many kitchens boast about using fresh ingredients, but Shmoné takes that philosophy to another level, creating a new menu daily (though some items stick around). The cooking relies on the grill all the way through to dessert, where grilled figs atop Chantilly cream have made an appearance. Dishes aren't repeated but they're certainly memorable, as in thin slices of hamachi or flatiron Wagyu slid off a skewer tableside and boasting smoky tenderness. The flavors are impressively dialed in and make for a focused meal that is surprisingly approachable and humble.","['small', 'sleek', 'space', 'punch', 'way', 'abov', 'weight', 'dazzl', 'neolevantin', 'cuisin', 'mani', 'kitchen', 'boast', 'about', 'use', 'ingredi', 'but', 'shmon', 'take', 'philosophi', 'anoth', 'level', 'creat', 'new', 'menu', 'daili', 'though', 'some', 'item', 'stick', 'around', 'cook', 'reli', 'grill', 'way', 'through', 'dessert', 'where', 'grill', 'fig', 'atop', 'chantilli', 'cream', 'made', 'appear', 'dish', 'arent', 'repeat', 'but', 'theyr', 'certainli', 'thin', 'slice', 'hamachi', 'flatiron', 'wagyu', 'slid', 'off', 'skewer', 'tablesid', 'boast', 'smoki', 'tender', 'flavor', 'impress', 'dial', 'make', 'focus', 'meal', 'surprisingli', 'approach', 'humbl']",6,6,2,"Social Dining with Friends (Lively, Relaxed, Fun)"
58,Tuome,40.724194,-73.9828,"536 E. 5th St., New York, 10009, USA",3,"Fusion, Asian, Contemporary",1,"Classically trained Chef Thomas Chen is the one to thank for the fabulous Tuome. It's an Asian-inspired menu, which is no surprise as the chef is a master of weaving together ingredients to delicious and surprising effect. The intimate space is outfitted with a backlit bar, bay windows, and comfortable purple seats. Service is fittingly unfussy yet deeply knowledgeable. Don’t miss the seared octopus served atop pork XO sauce or the lamb chops, served perfectly medium rare and finished with a shishito chimichurri, black pepper jus, and a dollop of onion soubise. Finally, deep-fried buns which arrive as Chinese “beignets” accompanied by vanilla ice cream laced with red bean paste, goat's milk caramel, and yuzu marmalade render dessert wholly unmissable.","['classic', 'train', 'chef', 'thoma', 'chen', 'one', 'thank', 'fabul', 'tuom', 'asianinspir', 'menu', 'which', 'surpris', 'chef', 'master', 'weav', 'togeth', 'ingredi', 'surpris', 'effect', 'intim', 'space', 'outfit', 'backlit', 'bar', 'bay', 'window', 'comfort', 'purpl', 'seat', 'servic', 'fittingli', 'unfussi', 'yet', 'deepli', 'knowledg', 'dont', 'miss', 'sear', 'octopu', 'serv', 'atop', 'pork', 'sauc', 'lamb', 'chop', 'serv', 'perfectli', 'medium', 'rare', 'finish', 'shishito', 'chimichurri', 'black', 'pepper', 'ju', 'dollop', 'onion', 'soubis', 'final', 'deepfri', 'bun', 'which', 'arriv', 'chines', 'beignet', 'accompani', 'vanilla', 'ice', 'cream', 'lace', 'red', 'bean', 'past', 'goat', 'milk', 'caramel', 'yuzu', 'marmalad', 'render', 'dessert', 'wholli', 'unmiss']",5,5,2,"Social Dining with Friends (Lively, Relaxed, Fun)"
59,Bar Miller,40.724018,-73.980635,"620 E. 6th St., New York, 10009, USA",4,"Japanese, Sushi",1,"From the team behind Rosella, this diminutive spot with a sprinkling of seats steers clear of the familiar minimalist design, favoring bold colors and eye-catching details (note the custom pottery displayed behind the counter).","['team', 'behind', 'rosella', 'diminut', 'spot', 'sprinkl', 'seat', 'steer', 'clear', 'familiar', 'minimalist', 'design', 'favor', 'bold', 'color', 'eyecatch', 'detail', 'note', 'custom', 'potteri', 'display', 'behind', 'counter']",5,5,2,"Social Dining with Friends (Lively, Relaxed, Fun)"
60,Tsukimi,40.729016,-73.985251,"288 E. 10th St., New York, 10003, USA",4,"Japanese, Seasonal Cuisine",1,"""Simplicity is the peak of elegance"" seems a fitting adage for this stunning kaiseki counter. In Japanese, ""tsukimi"" means moon viewing (a harvest festival honoring the moon at its fullest and brightest); and following the moniker quite literally is a central motif of the moon. Illuminated shelves of ceramics and mirrored panels reinforce this light-bright aesthetic. Service is seamless and unaffected, enhancing the overall experience.","['simplic', 'peak', 'eleg', 'seem', 'fit', 'adag', 'stun', 'kaiseki', 'counter', 'japanes', 'tsukimi', 'mean', 'moon', 'view', 'harvest', 'festiv', 'honor', 'moon', 'fullest', 'brightest', 'follow', 'monik', 'quit', 'liter', 'central', 'motif', 'moon', 'illumin', 'shelv', 'ceram', 'mirror', 'panel', 'reinforc', 'lightbright', 'aesthet', 'servic', 'seamless', 'unaffect', 'enhanc', 'overal', 'experi']",3,3,3,"Romantic & Intimate Dining (Calm, Private, Ambience-Focused)"
61,Semma,40.736059,-74.000673,"60 Greenwich Ave., New York, 10011, USA",3,"Indian, Regional Cuisine",1,"Chef Vijay Kumar runs the show at Semma, where regional south Indian cuisine is on full display. This is authentic Indian cooking that doesn't pander to American expectations, and if some of the dishes are unfamiliar, lean on the staff who know their stuff and are eager to share. ","['chef', 'vijay', 'kumar', 'run', 'show', 'semma', 'where', 'region', 'south', 'indian', 'cuisin', 'full', 'display', 'indian', 'cook', 'doesnt', 'pander', 'american', 'expect', 'some', 'dish', 'unfamiliar', 'lean', 'staff', 'who', 'know', 'stuff', 'eager', 'share']",6,6,2,"Social Dining with Friends (Lively, Relaxed, Fun)"
62,Kosaka,40.738316,-74.00137,"220 W. 13th St., New York, 10011, USA",4,"Japanese, Sushi",1,"Chef Yoshihiko Kousaka is in control of this beloved sushiya, which offers a stellar omakase in an elegant setting. The dining room flaunts a classic Japanese sensibility—outfitted with a counter for 12, a few tables, soft piano music, as well as an attentive staff that enhance the overall experience.","['chef', 'yoshihiko', 'kousaka', 'control', 'belov', 'sushiya', 'which', 'offer', 'stellar', 'omakas', 'set', 'dine', 'room', 'flaunt', 'classic', 'japanes', 'sensibilityoutfit', 'counter', 'few', 'tabl', 'soft', 'piano', 'music', 'well', 'attent', 'staff', 'enhanc', 'overal', 'experi']",6,6,2,"Social Dining with Friends (Lively, Relaxed, Fun)"
63,Casa Mono,40.735895,-73.987342,"52 Irving Pl., New York, 10003, USA",3,"Spanish, Contemporary",1,"There’s something reassuring about a kitchen that gets in whole beasts and does its own butchery—you just know it understands the essence of what good cooking is all about. Here at the small but perfectly formed Casa Mono, dishes are none of those one-bite wonders that blight so many places these days. Nor do they arrive in a stampede at your table. Instead, they are sent out in a sensible order, for the benefit of the diner rather than the convenience of the kitchen.","['there', 'someth', 'reassur', 'about', 'kitchen', 'get', 'whole', 'beast', 'doe', 'own', 'butcheryy', 'know', 'understand', 'essenc', 'what', 'cook', 'about', 'here', 'small', 'but', 'perfectli', 'form', 'casa', 'mono', 'dish', 'none', 'those', 'onebit', 'wonder', 'blight', 'mani', 'place', 'these', 'day', 'nor', 'arriv', 'stamped', 'tabl', 'instead', 'sent', 'out', 'sensibl', 'order', 'benefit', 'diner', 'rather', 'than', 'conveni', 'kitchen']",5,5,2,"Social Dining with Friends (Lively, Relaxed, Fun)"
64,bōm,40.739618,-73.99245,"17 W. 19th St., New York, 10011, USA",4,"Korean, Contemporary",1,"This modern counter tucked behind sister restaurant Oiji Mi showcases contemporary Korean fare with a focus on wagyu beef. The space itself is a stunner with soaring ceilings, sharply dressed servers, and a spacious marble counter that has built-in barbecue grills. These grills quietly work throughout the evening, searing off premium cuts such as tenderloin, short rib, and ribeye that are kept in a dry-aging chamber in full view of the dining room. But know that there is more at play here than just beef. The likes of uni, caviar, truffles, and crab make appearances, and the kitchen has no qualms about stacking such luxury on top of one another. Recent highlights include a croustade of baesuk, jujube, and tofu as well as bone broth with radish.","['counter', 'tuck', 'behind', 'sister', 'restaur', 'oiji', 'showcas', 'contemporari', 'korean', 'fare', 'focu', 'wagyu', 'beef', 'space', 'itself', 'stunner', 'soar', 'ceil', 'sharpli', 'dress', 'server', 'spaciou', 'marbl', 'counter', 'builtin', 'barbecu', 'grill', 'these', 'grill', 'quietli', 'work', 'throughout', 'even', 'sear', 'off', 'premium', 'cut', 'tenderloin', 'short', 'rib', 'ribey', 'kept', 'dryag', 'chamber', 'full', 'view', 'dine', 'room', 'but', 'know', 'there', 'more', 'play', 'here', 'than', 'beef', 'like', 'uni', 'caviar', 'truffl', 'crab', 'make', 'appear', 'kitchen', 'qualm', 'about', 'stack', 'top', 'one', 'anoth', 'recent', 'highlight', 'includ', 'croustad', 'baesuk', 'jujub', 'tofu', 'well', 'bone', 'broth', 'radish']",6,6,2,"Social Dining with Friends (Lively, Relaxed, Fun)"
65,Oiji Mi,40.739637,-73.992412,"17 W. 19th St., New York, 10011, USA",4,"Korean, Contemporary",1,"Chef Brian Kim and his team serve up very impressive modern Korean cuisine in a sleek space attended to by a fleet of staff. There is a refinement and a more subtle approach to flavors on this five-course prix fixe menu. Standouts include striped jack hwe, finished with a luscious seaweed scallion vinaigrette. Chili lobster ramyun plates tender lobster meat tossed in a vibrant gochujang over springy noodles. Desserts like cheese-stuffed chapssal donuts are a surefire hit.","['chef', 'brian', 'kim', 'hi', 'team', 'serv', 'korean', 'cuisin', 'sleek', 'space', 'attend', 'fleet', 'staff', 'there', 'refin', 'more', 'subtl', 'approach', 'flavor', 'fivecours', 'prix', 'fix', 'menu', 'standout', 'includ', 'stripe', 'jack', 'hwe', 'finish', 'lusciou', 'seawe', 'scallion', 'vinaigrett', 'chili', 'lobster', 'ramyun', 'plate', 'tender', 'lobster', 'meat', 'toss', 'vibrant', 'gochujang', 'over', 'springi', 'noodl', 'dessert', 'like', 'cheesestuf', 'chapssal', 'donut', 'surefir', 'hit']",6,6,2,"Social Dining with Friends (Lively, Relaxed, Fun)"
66,Gramercy Tavern,40.738758,-73.988991,"42 E. 20th St., New York, 10003, USA",4,"Contemporary, American",1,"This fabled NY icon is high on most people's roll call. It's one of those places that manages the rare trick of being so confident in its abilities and can be all things to all diners. You’ll probably leave happy whether you’re here on a date, to impress the in-laws or seal a deal. The “Tavern” side is a prized spot for lunch, especially if you can sit at the bar. It doesn't take reservations so get here early. The “Dining Room” though is for those who like a little more pomp with their pappardelle and truly comes to life at night. Service is attentive throughout.","['fabl', 'icon', 'most', 'peopl', 'roll', 'call', 'one', 'those', 'place', 'manag', 'rare', 'trick', 'be', 'confid', 'abil', 'can', 'thing', 'diner', 'youll', 'probabl', 'leav', 'happi', 'whether', 'your', 'here', 'date', 'impress', 'inlaw', 'seal', 'deal', 'tavern', 'side', 'prize', 'spot', 'lunch', 'especi', 'can', 'sit', 'bar', 'doesnt', 'take', 'reserv', 'get', 'here', 'earli', 'dine', 'room', 'though', 'those', 'who', 'like', 'littl', 'more', 'pomp', 'pappardel', 'truli', 'come', 'life', 'night', 'servic', 'attent', 'throughout']",5,5,2,"Social Dining with Friends (Lively, Relaxed, Fun)"
67,Rezdôra,40.739005,-73.989009,"27 E. 20th St., New York, 10003, USA",4,"Italian, Regional Cuisine",1,"If you’ve been lucky enough to sample the ethereal cuisine of Emilia-Romagna, you’re in for a treat at Chef Stefano Secchi's cherished osteria. Nestled into a well-designed space in the Flatiron District, this cheerful spot brings the Italian region’s signature cuisine stateside.","['youv', 'lucki', 'enough', 'sampl', 'ether', 'cuisin', 'emiliaromagna', 'your', 'treat', 'chef', 'stefano', 'secchi', 'cherish', 'osteria', 'nestl', 'welldesign', 'space', 'flatiron', 'district', 'cheer', 'spot', 'bring', 'italian', 'region', 'signatur', 'cuisin', 'statesid']",7,7,1,"Business Fine Dining (Elegant, Secure, Executive Atmosphere)"
68,Noda,40.740454,-73.99308,"37 W. 20th St., New York, 10001, USA",4,"Japanese, Sushi",1,"Chef Shigeyuki Tsunoda's iconic eight-seat half-moon shaped counter is fronted by the team's cocktail den, Shinji. Throughout this arena, the signature speak-easy vibe is a distinct element and the dark cozy space with exposed brick walls is a prized spot for some excellent sushi enhanced by an impressive beverage program with vintage champagne and a comprehensive sake collection showcasing rare bottles not found elsewhere. Chef Shigeyuki Tsunoda undertakes his duties with calm, unhurried efficiency and his omakase is rooted in tradition. Confident knife cuts, warmed rice and pristine fish are par for the course. The meal begins with small snacks before progressing into the pristine nigiri, where the standouts, among many, are sea eel and two kinds of uni.","['chef', 'shigeyuki', 'tsunoda', 'icon', 'eightseat', 'halfmoon', 'shape', 'counter', 'front', 'team', 'cocktail', 'den', 'shinji', 'throughout', 'arena', 'signatur', 'speakeasi', 'vibe', 'distinct', 'element', 'dark', 'space', 'expos', 'brick', 'wall', 'prize', 'spot', 'some', 'sushi', 'enhanc', 'beverag', 'program', 'vintag', 'champagn', 'comprehens', 'sake', 'collect', 'showcas', 'rare', 'bottl', 'not', 'found', 'elsewher', 'chef', 'shigeyuki', 'tsunoda', 'undertak', 'hi', 'duti', 'calm', 'unhurri', 'effici', 'hi', 'omakas', 'root', 'tradit', 'confid', 'knife', 'cut', 'warm', 'rice', 'pristin', 'fish', 'par', 'cours', 'meal', 'begin', 'small', 'snack', 'befor', 'progress', 'pristin', 'nigiri', 'where', 'standout', 'among', 'mani', 'sea', 'eel', 'two', 'kind', 'uni']",5,5,2,"Social Dining with Friends (Lively, Relaxed, Fun)"
